{"type":"FeatureCollection","features":[{"type":"Feature","properties":{"shapeISO":"","shapeID":"59680162B97490121732821","shapeGroup":"NGA","shapeType":"ADM2","name":"Yewa South"},"geometry":{"type":"Polygon","coordinates":[[[3.0817,6.76198],[3.07666,6.77963],[3.06753,6.79327],[3.06111,6.79702],[3.05656,6.80408],[3.05823,6.83045],[3.05395,6.83919],[3.05525,6.85644],[3.06659,6.86364],[3.07413,6.86666],[3.08305,6.87878],[3.089,6.88361],[3.09451,6.89627],[3.09286,6.90428],[3.06112,6.9216],[3.05645,6.9297],[3.05171,6.94502],[3.04467,6.94229],[3.0399,6.93691],[3.02741,6.93761],[3.01726,6.95097],[3.00778,6.95871],[2.99046,6.96593],[2.97963,6.96321],[2.97697,6.95352],[2.97754,6.94945],[2.97428,6.94685],[2.97641,6.94256],[2.97484,6.93873],[2.96311,6.94026],[2.95365,6.94509],[2.93558,6.9476],[2.92633,6.94641],[2.91779,6.94738],[2.91013,6.94315],[2.91365,6.9294],[2.91748,6.92221],[2.91463,6.91132],[2.90855,6.89719],[2.91015,6.87354],[2.90311,6.87781],[2.88379,6.88045],[2.87397,6.87397],[2.85618,6.86871],[2.8374,6.86094],[2.83919,6.83432],[2.83613,6.81906],[2.82672,6.81613],[2.81729,6.79195],[2.80696,6.77353],[2.81409,6.76589],[2.83329,6.76762],[2.83874,6.76521],[2.8509,6.77761],[2.85397,6.77495],[2.8755,6.76461],[2.88415,6.74109],[2.86981,6.73475],[2.86584,6.72284],[2.87041,6.70519],[2.87295,6.68418],[2.86367,6.67782],[2.84787,6.67891],[2.83758,6.67754],[2.82995,6.67096],[2.83447,6.6637],[2.83529,6.65407],[2.8285,6.64804],[2.82649,6.64449],[2.82901,6.63978],[2.83556,6.63509],[2.86204,6.59683],[2.86804,6.59127],[2.87435,6.58963],[2.87385,6.57001],[2.88724,6.56731],[2.89734,6.57676],[2.90527,6.58046],[2.90507,6.58231],[2.90993,6.58576],[2.91587,6.585],[2.92142,6.5933],[2.92597,6.59516],[2.92195,6.60081],[2.92349,6.60718],[2.93034,6.6114],[2.93634,6.61747],[2.93121,6.63657],[2.9308,6.64706],[2.94627,6.66252],[2.95069,6.67196],[2.9543,6.67324],[2.95606,6.68666],[2.96154,6.68366],[2.96436,6.67753],[2.9671,6.67622],[2.97444,6.67845],[2.97677,6.67997],[2.97789,6.68369],[2.98108,6.68451],[2.99476,6.67284],[3.00286,6.67112],[3.00979,6.67162],[3.01715,6.69567],[3.04248,6.73292],[3.05011,6.75167],[3.0817,6.76198]]]}},{"type":"Feature","properties":{"shapeISO":"","shapeID":"59680162B78639882894514","shapeGroup":"NGA","shapeType":"ADM2","name":"Lagos Mainland"},"geometry":{"type":"Polygon","coordinates":[[[3.37936,6.46623],[3.38338,6.46835],[3.38482,6.47069],[3.38433,6.47488],[3.38987,6.47862],[3.39374,6.48478],[3.39307,6.48849],[3.38989,6.49284],[3.39787,6.49092],[3.40425,6.50701],[3.40508,6.51536],[3.39985,6.52396],[3.38205,6.52404],[3.38092,6.52657],[3.37608,6.52898],[3.37233,6.5255],[3.37064,6.52634],[3.3675,6.52439],[3.36751,6.51998],[3.36548,6.51727],[3.36794,6.5164],[3.37206,6.50642],[3.36871,6.50529],[3.36718,6.50143],[3.3676,6.49594],[3.36535,6.49061],[3.36329,6.49],[3.3691,6.48224],[3.36627,6.48055],[3.3645,6.47625],[3.37052,6.474],[3.37232,6.4694],[3.37776,6.46942],[3.37936,6.46623]]]}},{"type":"Feature","properties":{"shapeISO":"","shapeID":"59680162B72688390978538","shapeGroup":"NGA","shapeType":"ADM2","name":"Lagos Island"},"geometry":{"type":"Polygon","coordinates":[[[3.40301,6.43934],[3.40306,6.44141],[3.40718,6.44619],[3.40851,6.45377],[3.40714,6.45714],[3.40411,6.45843],[3.39872,6.45955],[3.39208,6.46587],[3.38157,6.46228],[3.38149,6.46354],[3.37977,6.46006],[3.38147,6.4541],[3.40301,6.43934]]]}},{"type":"Feature","properties":{"shapeISO":"","shapeID":"59680162B5781056238943","shapeGroup":"NGA","shapeType":"ADM2","name":"Apapa"},"geometry":{"type":"Polygon","coordinates":[[[3.3645,6.47625],[3.36335,6.47389],[3.36134,6.47478],[3.35923,6.47298],[3.35623,6.47319],[3.35284,6.47834],[3.34907,6.47781],[3.34802,6.4791],[3.33878,6.4746],[3.34597,6.47107],[3.35046,6.4729],[3.35091,6.46743],[3.35552,6.4666],[3.35644,6.45947],[3.35615,6.45516],[3.35103,6.45485],[3.35149,6.44888],[3.34918,6.44384],[3.34906,6.43697],[3.33708,6.43806],[3.33172,6.43741],[3.33205,6.4299],[3.35446,6.42455],[3.35959,6.39766],[3.37709,6.39804],[3.3801,6.40738],[3.38438,6.4099],[3.40027,6.41043],[3.40301,6.42922],[3.40301,6.43934],[3.38147,6.4541],[3.37977,6.46006],[3.38149,6.46354],[3.37936,6.46623],[3.37776,6.46942],[3.37232,6.4694],[3.37052,6.474],[3.3645,6.47625]]]}},{"type":"Feature","properties":{"shapeISO":"","shapeID":"59680162B74094197759690","shapeGroup":"NGA","shapeType":"ADM2","name":"Ado Odo/Ota"},"geometry":{"type":"Polygon","coordinates":[[[2.88724,6.56731],[2.88757,6.55803],[2.88226,6.53043],[2.88369,6.52346],[2.89201,6.5115],[2.91744,6.51154],[2.91887,6.51295],[2.9243,6.5127],[2.92648,6.51186],[2.92478,6.50819],[2.92654,6.50465],[2.93001,6.5086],[2.93504,6.5086],[2.93468,6.51039],[2.93138,6.51199],[2.93512,6.51627],[2.93766,6.51319],[2.95034,6.51412],[2.95402,6.51269],[2.95416,6.50185],[3.05985,6.50177],[3.07226,6.4972],[3.07725,6.49239],[3.09365,6.50006],[3.10301,6.49962],[3.10861,6.50329],[3.11588,6.50486],[3.14232,6.50784],[3.14552,6.5059],[3.151,6.50594],[3.1552,6.50799],[3.16045,6.50807],[3.16337,6.51108],[3.17532,6.51479],[3.18441,6.52702],[3.1887,6.53065],[3.19622,6.53042],[3.19965,6.53185],[3.2014,6.5326],[3.20026,6.53631],[3.20119,6.54407],[3.19863,6.54577],[3.20013,6.55046],[3.19798,6.56123],[3.19535,6.56696],[3.19355,6.56887],[3.19213,6.56771],[3.19167,6.56961],[3.19328,6.57777],[3.20438,6.58624],[3.20508,6.58855],[3.21179,6.59466],[3.22462,6.60176],[3.2274,6.60782],[3.23783,6.61985],[3.23841,6.66081],[3.24428,6.66577],[3.2561,6.68192],[3.25739,6.69301],[3.25775,6.69696],[3.26455,6.70043],[3.27246,6.69842],[3.27833,6.69404],[3.28478,6.70481],[3.28106,6.70667],[3.28173,6.71039],[3.28317,6.7105],[3.28545,6.71388],[3.28009,6.7224],[3.28164,6.72414],[3.2824,6.72972],[3.27096,6.73347],[3.26849,6.73576],[3.25658,6.75692],[3.25362,6.76634],[3.24583,6.7744],[3.24395,6.77376],[3.24365,6.76609],[3.24131,6.7621],[3.23677,6.76181],[3.23339,6.7633],[3.23079,6.75829],[3.22692,6.75883],[3.22326,6.75479],[3.22332,6.75302],[3.22061,6.75313],[3.21871,6.75145],[3.20915,6.75194],[3.20626,6.75505],[3.19737,6.749],[3.19447,6.75027],[3.19277,6.74878],[3.19094,6.75007],[3.18644,6.74692],[3.18132,6.74897],[3.17845,6.75182],[3.17111,6.75199],[3.16551,6.75397],[3.15464,6.74635],[3.14864,6.74538],[3.14177,6.74567],[3.13202,6.75178],[3.12303,6.74903],[3.11815,6.73358],[3.11105,6.72892],[3.10787,6.72846],[3.09592,6.7312],[3.09053,6.74138],[3.0911,6.74706],[3.08929,6.75879],[3.0817,6.76198],[3.05011,6.75167],[3.04248,6.73292],[3.01715,6.69567],[3.00979,6.67162],[3.00286,6.67112],[2.99476,6.67284],[2.98108,6.68451],[2.97789,6.68369],[2.97677,6.67997],[2.97444,6.67845],[2.9671,6.67622],[2.96436,6.67753],[2.96154,6.68366],[2.95606,6.68666],[2.9543,6.67324],[2.95069,6.67196],[2.94627,6.66252],[2.9308,6.64706],[2.93121,6.63657],[2.93634,6.61747],[2.93034,6.6114],[2.92349,6.60718],[2.92195,6.60081],[2.92597,6.59516],[2.92142,6.5933],[2.91587,6.585],[2.90993,6.58576],[2.90507,6.58231],[2.90527,6.58046],[2.89734,6.57676],[2.88724,6.56731]]]}},{"type":"Feature","properties":{"shapeISO":"","shapeID":"59680162B75104511306168","shapeGroup":"NGA","shapeType":"ADM2","name":"Mushin"},"geometry":{"type":"Polygon","coordinates":[[[3.3675,6.52439],[3.36693,6.55848],[3.36686,6.55848],[3.35826,6.55827],[3.35181,6.5557],[3.3411,6.55128],[3.33804,6.54852],[3.33437,6.51701],[3.3253,6.50987],[3.32229,6.50156],[3.32662,6.49864],[3.33766,6.51111],[3.34861,6.51258],[3.34857,6.51555],[3.3517,6.51533],[3.35228,6.51819],[3.35855,6.51278],[3.36084,6.51475],[3.36253,6.5194],[3.36465,6.52038],[3.36548,6.51727],[3.36751,6.51998],[3.3675,6.52439]]]}},{"type":"Feature","properties":{"shapeISO":"","shapeID":"59680162B1513568068009","shapeGroup":"NGA","shapeType":"ADM2","name":"Surulere"},"geometry":{"type":"Polygon","coordinates":[[[3.36548,6.51727],[3.36465,6.52038],[3.36253,6.5194],[3.36084,6.51475],[3.35855,6.51278],[3.35228,6.51819],[3.3517,6.51533],[3.34857,6.51555],[3.34861,6.51258],[3.33766,6.51111],[3.32662,6.49864],[3.32229,6.50156],[3.32151,6.49577],[3.32709,6.48356],[3.32731,6.47795],[3.32533,6.47288],[3.31556,6.45979],[3.31973,6.46094],[3.33878,6.4746],[3.34802,6.4791],[3.34907,6.47781],[3.35284,6.47834],[3.35623,6.47319],[3.35923,6.47298],[3.36134,6.47478],[3.36335,6.47389],[3.3645,6.47625],[3.36627,6.48055],[3.3691,6.48224],[3.36329,6.49],[3.36535,6.49061],[3.3676,6.49594],[3.36718,6.50143],[3.36871,6.50529],[3.37206,6.50642],[3.36794,6.5164],[3.36548,6.51727]]]}},{"type":"Feature","properties":{"shapeISO":"","shapeID":"59680162B68379866165825","shapeGroup":"NGA","shapeType":"ADM2","name":"Shomolu"},"geometry":{"type":"Polygon","coordinates":[[[3.39985,6.52396],[3.40149,6.53063],[3.39976,6.53985],[3.39678,6.55022],[3.38012,6.54826],[3.37004,6.55738],[3.36693,6.55848],[3.3675,6.52439],[3.37064,6.52634],[3.37233,6.5255],[3.37608,6.52898],[3.38092,6.52657],[3.38205,6.52404],[3.39985,6.52396]]]}},{"type":"Feature","properties":{"shapeISO":"","shapeID":"59680162B37327775180775","shapeGroup":"NGA","shapeType":"ADM2","name":"Agege"},"geometry":{"type":"Polygon","coordinates":[[[3.31584,6.60539],[3.32052,6.6079],[3.32657,6.60823],[3.33308,6.60176],[3.333,6.61393],[3.33573,6.6142],[3.33548,6.61684],[3.33682,6.61754],[3.3346,6.62578],[3.33668,6.62653],[3.32742,6.62893],[3.32257,6.62736],[3.31449,6.64788],[3.30602,6.64783],[3.29811,6.62514],[3.29833,6.62266],[3.30321,6.61736],[3.30627,6.61041],[3.31584,6.60539]]]}},{"type":"Feature","properties":{"shapeISO":"","shapeID":"59680162B18924931802221","shapeGroup":"NGA","shapeType":"ADM2","name":"Oshodi/Isolo"},"geometry":{"type":"Polygon","coordinates":[[[3.35181,6.5557],[3.3376,6.59029],[3.33418,6.58932],[3.33392,6.58282],[3.33101,6.58261],[3.33045,6.58054],[3.32135,6.58273],[3.31566,6.58065],[3.31506,6.58788],[3.30879,6.58815],[3.30866,6.57756],[3.30705,6.57721],[3.30754,6.5717],[3.30568,6.56818],[3.30067,6.57188],[3.29472,6.57267],[3.28811,6.57058],[3.28636,6.56803],[3.28689,6.56125],[3.28573,6.55778],[3.28716,6.55542],[3.28594,6.54511],[3.28801,6.54107],[3.28859,6.53327],[3.28714,6.52536],[3.28185,6.52145],[3.29248,6.50685],[3.2902,6.50195],[3.29004,6.49159],[3.29032,6.48281],[3.31525,6.48881],[3.31732,6.48985],[3.3196,6.49535],[3.32151,6.49577],[3.32229,6.50156],[3.3253,6.50987],[3.33437,6.51701],[3.33804,6.54852],[3.3411,6.55128],[3.35181,6.5557]]]}},{"type":"Feature","properties":{"shapeISO":"","shapeID":"59680162B51331479839153","shapeGroup":"NGA","shapeType":"ADM2","name":"Ajeromi/Ifelodun"},"geometry":{"type":"Polygon","coordinates":[[[3.33878,6.4746],[3.31973,6.46094],[3.31556,6.45979],[3.31595,6.45471],[3.32131,6.44362],[3.3345,6.44009],[3.33708,6.43806],[3.34906,6.43697],[3.34918,6.44384],[3.35149,6.44888],[3.35103,6.45485],[3.35615,6.45516],[3.35644,6.45947],[3.35552,6.4666],[3.35091,6.46743],[3.35046,6.4729],[3.34597,6.47107],[3.33878,6.4746]]]}},{"type":"Feature","properties":{"shapeISO":"","shapeID":"59680162B96890005302109","shapeGroup":"NGA","shapeType":"ADM2","name":"Amuwo Odofin"},"geometry":{"type":"Polygon","coordinates":[[[3.33708,6.43806],[3.3345,6.44009],[3.32131,6.44362],[3.31595,6.45471],[3.31556,6.45979],[3.32533,6.47288],[3.32731,6.47795],[3.32709,6.48356],[3.32151,6.49577],[3.3196,6.49535],[3.31732,6.48985],[3.31525,6.48881],[3.29032,6.48281],[3.29004,6.49159],[3.28449,6.48639],[3.27015,6.47808],[3.24635,6.47709],[3.244,6.47218],[3.23947,6.4744],[3.23978,6.4797],[3.2373,6.48024],[3.23721,6.48148],[3.23367,6.4786],[3.23481,6.47375],[3.23775,6.47058],[3.23787,6.45815],[3.23086,6.45926],[3.23019,6.44203],[3.22733,6.44212],[3.21583,6.43515],[3.20099,6.43453],[3.19944,6.43199],[3.19925,6.41954],[3.20182,6.41481],[3.20173,6.40206],[3.30224,6.40202],[3.335,6.40091],[3.35959,6.39766],[3.35446,6.42455],[3.33205,6.4299],[3.33172,6.43741],[3.33708,6.43806]]]}},{"type":"Feature","properties":{"shapeISO":"","shapeID":"59680162B38204256572023","shapeGroup":"NGA","shapeType":"ADM2","name":"Eti Osa"},"geometry":{"type":"Polygon","coordinates":[[[3.40301,6.43934],[3.40301,6.42922],[3.40027,6.41043],[3.38438,6.4099],[3.3801,6.40738],[3.37709,6.39804],[3.40172,6.39858],[3.40462,6.41192],[3.40875,6.41611],[3.43011,6.42218],[3.43042,6.42382],[3.43995,6.41864],[3.46092,6.42012],[3.46779,6.4173],[3.47734,6.41772],[3.48183,6.41928],[3.4918,6.41832],[3.49665,6.41951],[3.62824,6.42185],[3.6305,6.43018],[3.64248,6.44416],[3.66566,6.46789],[3.67345,6.474],[3.67344,6.48233],[3.66701,6.49151],[3.65432,6.4934],[3.64653,6.48885],[3.64296,6.48223],[3.63994,6.48021],[3.63062,6.48586],[3.62152,6.48742],[3.61897,6.4886],[3.61912,6.49146],[3.62715,6.49552],[3.62899,6.49891],[3.62696,6.50532],[3.61619,6.51338],[3.60117,6.51654],[3.57276,6.51179],[3.57426,6.50336],[3.57884,6.50117],[3.57951,6.49576],[3.56549,6.47812],[3.55361,6.46849],[3.55159,6.46708],[3.55056,6.46907],[3.5383,6.46954],[3.53458,6.46807],[3.53128,6.46442],[3.53405,6.46029],[3.52815,6.46182],[3.52367,6.46518],[3.52091,6.46163],[3.5176,6.46154],[3.52122,6.46306],[3.52208,6.46553],[3.51807,6.46851],[3.5128,6.46886],[3.51029,6.46592],[3.50905,6.45767],[3.50447,6.45422],[3.49473,6.45482],[3.49485,6.4559],[3.49198,6.45665],[3.49197,6.44969],[3.49339,6.44811],[3.4919,6.44708],[3.48754,6.45167],[3.48981,6.45382],[3.48633,6.45757],[3.48468,6.45392],[3.48201,6.4583],[3.47627,6.46029],[3.47951,6.46371],[3.48315,6.46092],[3.48689,6.46689],[3.48268,6.47008],[3.47565,6.46036],[3.4628,6.46124],[3.46024,6.46541],[3.4459,6.46891],[3.4437,6.46627],[3.44623,6.46394],[3.44052,6.46572],[3.43839,6.46332],[3.43679,6.46527],[3.4361,6.46371],[3.4304,6.46454],[3.42731,6.46756],[3.42211,6.46805],[3.41664,6.46366],[3.41137,6.46165],[3.40408,6.46157],[3.40411,6.45843],[3.40714,6.45714],[3.40851,6.45377],[3.40718,6.44619],[3.40306,6.44141],[3.40301,6.43934]]]}},{"type":"Feature","properties":{"shapeISO":"","shapeID":"59680162B6009908161486","shapeGroup":"NGA","shapeType":"ADM2","name":"Kosofe"},"geometry":{"type":"Polygon","coordinates":[[[3.36693,6.55848],[3.37004,6.55738],[3.38012,6.54826],[3.39678,6.55022],[3.39976,6.53985],[3.40274,6.53298],[3.40482,6.53304],[3.40798,6.54881],[3.40184,6.56454],[3.3979,6.56666],[3.39941,6.5688],[3.40349,6.56867],[3.40406,6.57224],[3.40649,6.5742],[3.41865,6.5778],[3.41861,6.58473],[3.40766,6.5831],[3.40564,6.58421],[3.40652,6.58942],[3.40522,6.59504],[3.41898,6.59067],[3.42983,6.59525],[3.43002,6.59979],[3.43334,6.60425],[3.44176,6.60706],[3.44085,6.61081],[3.44261,6.61378],[3.45268,6.62163],[3.45242,6.62271],[3.44981,6.62495],[3.44517,6.62608],[3.44032,6.6329],[3.43121,6.64063],[3.39254,6.6385],[3.39078,6.63977],[3.38223,6.63907],[3.38393,6.64111],[3.37843,6.63929],[3.37267,6.6411],[3.36754,6.63603],[3.36461,6.62978],[3.36406,6.62251],[3.36573,6.61662],[3.36311,6.61571],[3.35864,6.61078],[3.36656,6.60503],[3.36949,6.60752],[3.37528,6.59951],[3.37659,6.60051],[3.37834,6.59953],[3.38301,6.59348],[3.36815,6.57271],[3.36675,6.56804],[3.36686,6.55848],[3.36693,6.55848]]]}},{"type":"Feature","properties":{"shapeISO":"","shapeID":"59680162B54313559089261","shapeGroup":"NGA","shapeType":"ADM2","name":"Alimosho"},"geometry":{"type":"Polygon","coordinates":[[[3.19965,6.53185],[3.20317,6.52391],[3.20619,6.52332],[3.20853,6.51296],[3.21423,6.50659],[3.21328,6.50129],[3.21571,6.49788],[3.21695,6.49744],[3.2171,6.49995],[3.22024,6.49912],[3.22328,6.5013],[3.23331,6.49426],[3.23735,6.48585],[3.24104,6.48468],[3.23721,6.48148],[3.2373,6.48024],[3.23978,6.4797],[3.23947,6.4744],[3.244,6.47218],[3.24635,6.47709],[3.27015,6.47808],[3.28449,6.48639],[3.29004,6.49159],[3.2902,6.50195],[3.29248,6.50685],[3.28185,6.52145],[3.28714,6.52536],[3.28859,6.53327],[3.28801,6.54107],[3.28594,6.54511],[3.28716,6.55542],[3.28573,6.55778],[3.28689,6.56125],[3.28636,6.56803],[3.28811,6.57058],[3.29472,6.57267],[3.30067,6.57188],[3.30568,6.56818],[3.30754,6.5717],[3.30705,6.57721],[3.30866,6.57756],[3.30879,6.58815],[3.30986,6.60061],[3.31557,6.60141],[3.31584,6.60539],[3.30627,6.61041],[3.30321,6.61736],[3.29833,6.62266],[3.29811,6.62514],[3.30602,6.64783],[3.29437,6.65593],[3.29002,6.66279],[3.28319,6.66325],[3.27365,6.66982],[3.27059,6.67492],[3.26994,6.68156],[3.25739,6.69301],[3.2561,6.68192],[3.24428,6.66577],[3.23841,6.66081],[3.23783,6.61985],[3.2274,6.60782],[3.22462,6.60176],[3.21179,6.59466],[3.20508,6.58855],[3.20438,6.58624],[3.19328,6.57777],[3.19167,6.56961],[3.19213,6.56771],[3.19355,6.56887],[3.19535,6.56696],[3.19798,6.56123],[3.20013,6.55046],[3.19863,6.54577],[3.20119,6.54407],[3.20026,6.53631],[3.2014,6.5326],[3.19965,6.53185]]]}},{"type":"Feature","properties":{"shapeISO":"","shapeID":"59680162B46296414727789","shapeGroup":"NGA","shapeType":"ADM2","name":"Ifako/Ijaye"},"geometry":{"type":"Polygon","coordinates":[[[3.25739,6.69301],[3.26994,6.68156],[3.27059,6.67492],[3.27365,6.66982],[3.28319,6.66325],[3.29002,6.66279],[3.29437,6.65593],[3.30602,6.64783],[3.31449,6.64788],[3.32257,6.62736],[3.32742,6.62893],[3.33668,6.62653],[3.3432,6.6359],[3.34325,6.64482],[3.34115,6.64946],[3.3417,6.65103],[3.35009,6.65747],[3.35335,6.65824],[3.34842,6.66116],[3.34503,6.67255],[3.32808,6.67165],[3.31723,6.67567],[3.31554,6.67433],[3.31241,6.67467],[3.30693,6.67908],[3.28546,6.6868],[3.27833,6.69404],[3.27246,6.69842],[3.26455,6.70043],[3.25775,6.69696],[3.25739,6.69301]]]}},{"type":"Feature","properties":{"shapeISO":"","shapeID":"59680162B53104406185271","shapeGroup":"NGA","shapeType":"ADM2","name":"Ikorodu"},"geometry":{"type":"Polygon","coordinates":[[[3.4432,6.68591],[3.43924,6.68281],[3.43977,6.67549],[3.44347,6.67389],[3.44415,6.67109],[3.44247,6.66854],[3.44207,6.66276],[3.44768,6.66177],[3.44807,6.65491],[3.45206,6.64094],[3.43121,6.64063],[3.44032,6.6329],[3.44517,6.62608],[3.44981,6.62495],[3.45242,6.62271],[3.45268,6.62163],[3.44261,6.61378],[3.44085,6.61081],[3.44176,6.60706],[3.4449,6.60604],[3.46178,6.59106],[3.4647,6.59196],[3.46525,6.59565],[3.46663,6.59645],[3.46678,6.59879],[3.46429,6.60187],[3.47321,6.60127],[3.47721,6.60786],[3.48148,6.60639],[3.48241,6.6023],[3.47919,6.59799],[3.48126,6.59679],[3.48793,6.60097],[3.48212,6.58227],[3.47027,6.56139],[3.47064,6.55457],[3.47232,6.55298],[3.47169,6.54942],[3.46848,6.54363],[3.46647,6.54358],[3.46749,6.53561],[3.48073,6.52189],[3.48961,6.51618],[3.49581,6.51931],[3.4969,6.52248],[3.508,6.51876],[3.51226,6.51459],[3.52425,6.51355],[3.54108,6.52346],[3.55519,6.51871],[3.561,6.52234],[3.5611,6.52451],[3.56521,6.52559],[3.56888,6.53491],[3.57658,6.54286],[3.58512,6.54811],[3.5884,6.54864],[3.59211,6.54597],[3.60006,6.54546],[3.60787,6.54865],[3.6184,6.54752],[3.62853,6.53871],[3.63292,6.53969],[3.63547,6.54467],[3.64179,6.5515],[3.65717,6.55766],[3.66229,6.56215],[3.66953,6.57281],[3.67538,6.57577],[3.67888,6.58084],[3.68257,6.58227],[3.68396,6.58529],[3.6875,6.58653],[3.6899,6.59083],[3.7007,6.59758],[3.69696,6.60686],[3.7006,6.60966],[3.69971,6.6185],[3.69696,6.62263],[3.69681,6.62533],[3.6941,6.62779],[3.69261,6.62697],[3.68998,6.62864],[3.69084,6.63173],[3.68946,6.63433],[3.68376,6.64002],[3.68734,6.65363],[3.69079,6.65757],[3.69061,6.663],[3.69251,6.66851],[3.69708,6.67317],[3.69915,6.67869],[3.69901,6.68415],[3.69237,6.68279],[3.46135,6.68333],[3.45902,6.67352],[3.4432,6.68591]]]}},{"type":"Feature","properties":{"shapeISO":"","shapeID":"59680162B2266540401620","shapeGroup":"NGA","shapeType":"ADM2","name":"Ifo"},"geometry":{"type":"Polygon","coordinates":[[[3.0817,6.76198],[3.08929,6.75879],[3.0911,6.74706],[3.09053,6.74138],[3.09592,6.7312],[3.10787,6.72846],[3.11105,6.72892],[3.11815,6.73358],[3.12303,6.74903],[3.13202,6.75178],[3.14177,6.74567],[3.14864,6.74538],[3.15464,6.74635],[3.16551,6.75397],[3.17111,6.75199],[3.17845,6.75182],[3.18132,6.74897],[3.18644,6.74692],[3.19094,6.75007],[3.19277,6.74878],[3.19447,6.75027],[3.19737,6.749],[3.20626,6.75505],[3.20915,6.75194],[3.21871,6.75145],[3.22061,6.75313],[3.22332,6.75302],[3.22326,6.75479],[3.22692,6.75883],[3.23079,6.75829],[3.23339,6.7633],[3.23677,6.76181],[3.24131,6.7621],[3.24365,6.76609],[3.24395,6.77376],[3.24583,6.7744],[3.25362,6.76634],[3.25658,6.75692],[3.26849,6.73576],[3.27096,6.73347],[3.2824,6.72972],[3.28164,6.72414],[3.28009,6.7224],[3.28545,6.71388],[3.28317,6.7105],[3.28173,6.71039],[3.28106,6.70667],[3.28478,6.70481],[3.27833,6.69404],[3.28546,6.6868],[3.30693,6.67908],[3.31241,6.67467],[3.31554,6.67433],[3.31723,6.67567],[3.32808,6.67165],[3.34503,6.67255],[3.34842,6.66116],[3.35335,6.65824],[3.35405,6.6573],[3.35208,6.65597],[3.3527,6.6523],[3.36369,6.64943],[3.37055,6.64173],[3.37267,6.6411],[3.37843,6.63929],[3.38393,6.64111],[3.38223,6.63907],[3.39078,6.63977],[3.39254,6.6385],[3.43121,6.64063],[3.45206,6.64094],[3.44807,6.65491],[3.44768,6.66177],[3.44207,6.66276],[3.44247,6.66854],[3.44415,6.67109],[3.44347,6.67389],[3.43977,6.67549],[3.43337,6.67395],[3.42825,6.67786],[3.41985,6.67999],[3.41807,6.68496],[3.41822,6.69392],[3.41537,6.6947],[3.41277,6.68595],[3.39355,6.68498],[3.37862,6.70316],[3.37804,6.72238],[3.3696,6.72775],[3.36919,6.73722],[3.35882,6.75742],[3.3639,6.76466],[3.36967,6.77697],[3.37092,6.80629],[3.36591,6.81098],[3.36796,6.81582],[3.36365,6.81807],[3.36395,6.82115],[3.36788,6.82077],[3.37193,6.82568],[3.36967,6.82706],[3.36617,6.8254],[3.36268,6.82723],[3.36252,6.83088],[3.3443,6.8388],[3.33606,6.84917],[3.32862,6.8687],[3.32853,6.87503],[3.32414,6.88424],[3.31703,6.88868],[3.30449,6.90497],[3.29276,6.90222],[3.27134,6.89207],[3.25951,6.88851],[3.25838,6.86628],[3.24532,6.86453],[3.24463,6.85542],[3.2461,6.8436],[3.23802,6.84498],[3.22,6.83859],[3.20923,6.83777],[3.20905,6.83512],[3.20565,6.83206],[3.20194,6.83649],[3.19945,6.83538],[3.1973,6.83822],[3.19351,6.83704],[3.19349,6.83981],[3.18414,6.84066],[3.16449,6.847],[3.15961,6.84128],[3.14976,6.83601],[3.13777,6.84313],[3.13116,6.8514],[3.11531,6.85616],[3.10788,6.84796],[3.08848,6.84126],[3.07238,6.83294],[3.05823,6.83045],[3.05656,6.80408],[3.06111,6.79702],[3.06753,6.79327],[3.07666,6.77963],[3.0817,6.76198]]]}},{"type":"Feature","properties":{"shapeISO":"","shapeID":"59680162B78935719106444","shapeGroup":"NGA","shapeType":"ADM2","name":"Ikeja"},"geometry":{"type":"Polygon","coordinates":[[[3.36686,6.55848],[3.36675,6.56804],[3.36815,6.57271],[3.38301,6.59348],[3.37834,6.59953],[3.37659,6.60051],[3.37528,6.59951],[3.36949,6.60752],[3.36656,6.60503],[3.35864,6.61078],[3.36311,6.61571],[3.36573,6.61662],[3.36406,6.62251],[3.36461,6.62978],[3.36754,6.63603],[3.37267,6.6411],[3.37055,6.64173],[3.36369,6.64943],[3.3527,6.6523],[3.35208,6.65597],[3.35405,6.6573],[3.35335,6.65824],[3.35009,6.65747],[3.3417,6.65103],[3.34115,6.64946],[3.34325,6.64482],[3.3432,6.6359],[3.33668,6.62653],[3.3346,6.62578],[3.33682,6.61754],[3.33548,6.61684],[3.33573,6.6142],[3.333,6.61393],[3.33308,6.60176],[3.32657,6.60823],[3.32052,6.6079],[3.31584,6.60539],[3.31557,6.60141],[3.30986,6.60061],[3.30879,6.58815],[3.31506,6.58788],[3.31566,6.58065],[3.32135,6.58273],[3.33045,6.58054],[3.33101,6.58261],[3.33392,6.58282],[3.33418,6.58932],[3.3376,6.59029],[3.35181,6.5557],[3.35826,6.55827],[3.36686,6.55848]]]}},{"type":"Feature","properties":{"shapeISO":"","shapeID":"59680162B67711641000031","shapeGroup":"NGA","shapeType":"ADM2","name":"Ojo"},"geometry":{"type":"Polygon","coordinates":[[[3.10301,6.49962],[3.10264,6.49841],[3.11212,6.49065],[3.11547,6.48084],[3.11505,6.4753],[3.11176,6.47078],[3.10304,6.46735],[3.09219,6.4676],[3.09983,6.43945],[3.10407,6.43496],[3.10613,6.43467],[3.10638,6.42925],[3.10892,6.42707],[3.1063,6.41076],[3.09427,6.40862],[3.08221,6.41102],[3.06843,6.40987],[3.06217,6.4155],[3.04766,6.41389],[3.03101,6.40978],[3.02393,6.40461],[3.02077,6.39705],[3.03694,6.3966],[3.18122,6.40243],[3.20173,6.40206],[3.20182,6.41481],[3.19925,6.41954],[3.19944,6.43199],[3.20099,6.43453],[3.21583,6.43515],[3.22733,6.44212],[3.23019,6.44203],[3.23086,6.45926],[3.23787,6.45815],[3.23775,6.47058],[3.23481,6.47375],[3.23367,6.4786],[3.23721,6.48148],[3.24104,6.48468],[3.23735,6.48585],[3.23331,6.49426],[3.22328,6.5013],[3.22024,6.49912],[3.2171,6.49995],[3.21695,6.49744],[3.21571,6.49788],[3.21328,6.50129],[3.21423,6.50659],[3.20853,6.51296],[3.20619,6.52332],[3.20317,6.52391],[3.19965,6.53185],[3.19622,6.53042],[3.1887,6.53065],[3.18441,6.52702],[3.17532,6.51479],[3.16337,6.51108],[3.16045,6.50807],[3.1552,6.50799],[3.151,6.50594],[3.14552,6.5059],[3.14232,6.50784],[3.11588,6.50486],[3.10861,6.50329],[3.10301,6.49962]]]}},{"type":"Feature","properties":{"shapeISO":"","shapeID":"59680162B33139344805421","shapeGroup":"NGA","shapeType":"ADM2","name":"Badagry"},"geometry":{"type":"Polygon","coordinates":[[[2.89201,6.5115],[2.88553,6.51143],[2.88937,6.48653],[2.88879,6.48126],[2.88427,6.4743],[2.87647,6.46994],[2.86463,6.46927],[2.86001,6.46684],[2.85812,6.46317],[2.85821,6.44913],[2.83945,6.44881],[2.83141,6.44495],[2.81831,6.45459],[2.79368,6.46211],[2.78231,6.46061],[2.77342,6.454],[2.75923,6.45254],[2.73773,6.45264],[2.72984,6.45979],[2.72298,6.46152],[2.70464,6.45985],[2.69883,6.45878],[2.69917,6.43157],[2.70149,6.41178],[2.69984,6.37525],[2.70596,6.37499],[2.79913,6.38758],[2.84401,6.39156],[2.92515,6.39453],[2.9922,6.39473],[3.02077,6.39705],[3.02393,6.40461],[3.03101,6.40978],[3.04766,6.41389],[3.06217,6.4155],[3.06843,6.40987],[3.08221,6.41102],[3.09427,6.40862],[3.1063,6.41076],[3.10892,6.42707],[3.10638,6.42925],[3.10613,6.43467],[3.10407,6.43496],[3.09983,6.43945],[3.09219,6.4676],[3.10304,6.46735],[3.11176,6.47078],[3.11505,6.4753],[3.11547,6.48084],[3.11212,6.49065],[3.10264,6.49841],[3.10301,6.49962],[3.09365,6.50006],[3.07725,6.49239],[3.07226,6.4972],[3.05985,6.50177],[2.95416,6.50185],[2.95402,6.51269],[2.95034,6.51412],[2.93766,6.51319],[2.93512,6.51627],[2.93138,6.51199],[2.93468,6.51039],[2.93504,6.5086],[2.93001,6.5086],[2.92654,6.50465],[2.92478,6.50819],[2.92648,6.51186],[2.9243,6.5127],[2.91887,6.51295],[2.91744,6.51154],[2.89201,6.5115]]]}}]}