{"type":"FeatureCollection","features":[{"type":"Feature","properties":{"shapeISO":"","shapeID":"50627088B3574093962845","shapeGroup":"MEX","shapeType":"ADM2","name":"Taniche"},"geometry":{"type":"Polygon","coordinates":[[[-96.7491,16.58191],[-96.76678,16.58477],[-96.7849,16.58585],[-96.78514,16.58319],[-96.78611,16.55419],[-96.78821,16.55044],[-96.78627,16.54886],[-96.78648,16.5504],[-96.77887,16.55544],[-96.77907,16.55734],[-96.77721,16.55725],[-96.77564,16.56058],[-96.77189,16.56018],[-96.77259,16.55919],[-96.76959,16.56032],[-96.76964,16.55921],[-96.7676,16.56226],[-96.76522,16.56281],[-96.75683,16.56147],[-96.75037,16.56352],[-96.74805,16.56567],[-96.74442,16.56509],[-96.74243,16.57027],[-96.74505,16.5721],[-96.74789,16.57023],[-96.74925,16.57575],[-96.75492,16.57477],[-96.76094,16.57591],[-96.7491,16.58191]]]}},{"type":"Feature","properties":{"shapeISO":"","shapeID":"50627088B73044983414365","shapeGroup":"MEX","shapeType":"ADM2","name":"San Cristóbal Lachirioag"},"geometry":{"type":"Polygon","coordinates":[[[-96.15651,17.36055],[-96.15652,17.36607],[-96.17031,17.37257],[-96.17598,17.36865],[-96.18337,17.37461],[-96.18265,17.37325],[-96.18544,17.37307],[-96.18346,17.3698],[-96.18584,17.36593],[-96.18987,17.36581],[-96.18903,17.36206],[-96.19225,17.36319],[-96.19599,17.35966],[-96.20353,17.35975],[-96.2095,17.36159],[-96.21192,17.36633],[-96.20993,17.36136],[-96.20087,17.35476],[-96.1982,17.34866],[-96.19934,17.34563],[-96.1927,17.34239],[-96.18639,17.34315],[-96.18167,17.34106],[-96.17311,17.32803],[-96.17429,17.32736],[-96.16482,17.32557],[-96.16174,17.32639],[-96.16173,17.33412],[-96.15719,17.33402],[-96.15618,17.33917],[-96.15411,17.33807],[-96.15392,17.34747],[-96.15473,17.35031],[-96.15535,17.34924],[-96.15692,17.35037],[-96.15533,17.35362],[-96.15654,17.35274],[-96.15526,17.35712],[-96.15651,17.36055]]]}},{"type":"Feature","properties":{"shapeISO":"","shapeID":"50627088B33272492236803","shapeGroup":"MEX","shapeType":"ADM2","name":"San Ildefonso Villa Alta"},"geometry":{"type":"Polygon","coordinates":[[[-96.1927,17.34239],[-96.19269,17.34009],[-96.19286,17.33814],[-96.19486,17.3383],[-96.19543,17.33679],[-96.19466,17.3338],[-96.1976,17.33293],[-96.19379,17.32625],[-96.19561,17.32534],[-96.19402,17.31154],[-96.19573,17.31019],[-96.19083,17.30169],[-96.19496,17.29874],[-96.19624,17.29028],[-96.19391,17.29058],[-96.18987,17.28638],[-96.18693,17.28759],[-96.17986,17.28727],[-96.1759,17.29125],[-96.16856,17.2924],[-96.15694,17.30166],[-96.15452,17.30147],[-96.14517,17.30989],[-96.15199,17.31224],[-96.14668,17.32368],[-96.13871,17.32695],[-96.13071,17.32815],[-96.12412,17.35063],[-96.08505,17.35279],[-96.07878,17.36258],[-96.07751,17.37092],[-96.07705,17.38253],[-96.08105,17.38836],[-96.08543,17.39053],[-96.08628,17.39574],[-96.09221,17.39238],[-96.09787,17.39653],[-96.10254,17.40411],[-96.10076,17.41192],[-96.11761,17.43563],[-96.12625,17.44213],[-96.13009,17.44049],[-96.13444,17.45034],[-96.13894,17.45401],[-96.14497,17.45522],[-96.14749,17.45728],[-96.15625,17.45866],[-96.16255,17.45766],[-96.16765,17.45995],[-96.1715,17.45879],[-96.17326,17.45559],[-96.16738,17.44493],[-96.16516,17.44603],[-96.16317,17.44244],[-96.1627,17.43384],[-96.16016,17.42844],[-96.16064,17.42372],[-96.15075,17.41916],[-96.15139,17.40809],[-96.14335,17.4005],[-96.14599,17.39857],[-96.14352,17.39821],[-96.1414,17.39433],[-96.14509,17.38539],[-96.14332,17.37758],[-96.14162,17.37339],[-96.13587,17.37328],[-96.13582,17.37125],[-96.14062,17.36413],[-96.14279,17.36449],[-96.14118,17.36149],[-96.1425,17.35922],[-96.14592,17.35921],[-96.15217,17.35304],[-96.15227,17.35571],[-96.15031,17.35838],[-96.15651,17.36055],[-96.15526,17.35712],[-96.15654,17.35274],[-96.15533,17.35362],[-96.15692,17.35037],[-96.15535,17.34924],[-96.15473,17.35031],[-96.15392,17.34747],[-96.15411,17.33807],[-96.15618,17.33917],[-96.15719,17.33402],[-96.16173,17.33412],[-96.16174,17.32639],[-96.16482,17.32557],[-96.17429,17.32736],[-96.17311,17.32803],[-96.18167,17.34106],[-96.18639,17.34315],[-96.1927,17.34239]]]}},{"type":"Feature","properties":{"shapeISO":"","shapeID":"50627088B18479476628960","shapeGroup":"MEX","shapeType":"ADM2","name":"San Francisco Chindúa"},"geometry":{"type":"Polygon","coordinates":[[[-97.28778,17.4367],[-97.29569,17.4392],[-97.29927,17.44656],[-97.30722,17.44319],[-97.30236,17.43798],[-97.30916,17.4351],[-97.31074,17.43265],[-97.31733,17.43063],[-97.32605,17.43098],[-97.32933,17.42326],[-97.33177,17.42278],[-97.34356,17.42363],[-97.35001,17.42693],[-97.35653,17.4262],[-97.35657,17.42514],[-97.36122,17.42647],[-97.36477,17.42417],[-97.36191,17.41276],[-97.35037,17.41695],[-97.34694,17.41507],[-97.34675,17.41312],[-97.33271,17.41193],[-97.32794,17.4103],[-97.3239,17.4113],[-97.31952,17.40947],[-97.31617,17.38787],[-97.31096,17.38369],[-97.29596,17.39879],[-97.29534,17.39795],[-97.28775,17.41946],[-97.28811,17.42275],[-97.2922,17.42354],[-97.29207,17.42472],[-97.28238,17.42356],[-97.2815,17.4246],[-97.28427,17.42543],[-97.28651,17.42852],[-97.28473,17.43164],[-97.28778,17.4367]]]}},{"type":"Feature","properties":{"shapeISO":"","shapeID":"50627088B94948121721133","shapeGroup":"MEX","shapeType":"ADM2","name":"Santo Domingo Tlatayápam"},"geometry":{"type":"Polygon","coordinates":[[[-97.36191,17.41276],[-97.366,17.41025],[-97.36733,17.40755],[-97.36768,17.40145],[-97.36408,17.40104],[-97.34749,17.39226],[-97.34374,17.39205],[-97.3461,17.38626],[-97.32957,17.38836],[-97.32852,17.3906],[-97.31617,17.38787],[-97.31952,17.40947],[-97.3239,17.4113],[-97.32794,17.4103],[-97.33271,17.41193],[-97.34675,17.41312],[-97.34694,17.41507],[-97.35037,17.41695],[-97.36191,17.41276]]]}},{"type":"Feature","properties":{"shapeISO":"","shapeID":"50627088B63866819787675","shapeGroup":"MEX","shapeType":"ADM2","name":"San Francisco Cajonos"},"geometry":{"type":"Polygon","coordinates":[[[-96.2393,17.19657],[-96.2459,17.19491],[-96.24811,17.20244],[-96.25198,17.19821],[-96.25468,17.20009],[-96.26227,17.19684],[-96.26379,17.19469],[-96.27182,17.19264],[-96.29318,17.1931],[-96.30661,17.19774],[-96.30936,17.20043],[-96.30943,17.20412],[-96.31403,17.20396],[-96.34058,17.17868],[-96.33897,17.17466],[-96.34106,17.16759],[-96.33936,17.16707],[-96.33375,17.17275],[-96.33073,17.17146],[-96.3155,17.17863],[-96.30721,17.17209],[-96.30405,17.1716],[-96.30135,17.16821],[-96.29944,17.16926],[-96.29482,17.16678],[-96.29293,17.16789],[-96.28782,17.16478],[-96.2835,17.16428],[-96.28069,17.16571],[-96.27424,17.16517],[-96.271,17.16541],[-96.26915,17.16915],[-96.2665,17.16842],[-96.26213,17.17106],[-96.25635,17.17134],[-96.24938,17.15734],[-96.24772,17.1586],[-96.24014,17.15669],[-96.2334,17.15951],[-96.23263,17.15747],[-96.22931,17.15722],[-96.22316,17.16076],[-96.21508,17.16829],[-96.21058,17.17754],[-96.20499,17.17639],[-96.20024,17.17721],[-96.19553,17.17847],[-96.19669,17.18079],[-96.19445,17.18135],[-96.19502,17.18447],[-96.19234,17.18697],[-96.19406,17.18812],[-96.19347,17.19081],[-96.21079,17.19175],[-96.21568,17.19583],[-96.21738,17.19312],[-96.22877,17.19353],[-96.2393,17.19657]]]}},{"type":"Feature","properties":{"shapeISO":"","shapeID":"50627088B28175104329163","shapeGroup":"MEX","shapeType":"ADM2","name":"San Pedro Cajonos"},"geometry":{"type":"Polygon","coordinates":[[[-96.27424,17.16517],[-96.27267,17.15789],[-96.24938,17.15734],[-96.25635,17.17134],[-96.26213,17.17106],[-96.2665,17.16842],[-96.26915,17.16915],[-96.271,17.16541],[-96.27424,17.16517]]]}},{"type":"Feature","properties":{"shapeISO":"","shapeID":"50627088B37574101781202","shapeGroup":"MEX","shapeType":"ADM2","name":"San Pedro y San Pablo Ayutla"},"geometry":{"type":"Polygon","coordinates":[[[-96.16184,17.12447],[-96.16484,17.12422],[-96.16887,17.12672],[-96.17428,17.12637],[-96.18159,17.11963],[-96.1886,17.11576],[-96.1801,17.10938],[-96.17992,17.10736],[-96.18295,17.10279],[-96.18192,17.09276],[-96.17764,17.07629],[-96.17736,17.06429],[-96.18025,17.06068],[-96.19362,17.05186],[-96.19783,17.052],[-96.20083,17.04398],[-96.20577,17.0413],[-96.20903,17.03118],[-96.20736,17.02481],[-96.20775,17.01218],[-96.20384,17.00699],[-96.20087,16.99452],[-96.19598,16.99189],[-96.19351,16.98801],[-96.19202,16.98198],[-96.18974,16.97996],[-96.1861,16.97092],[-96.1831,16.96847],[-96.18155,16.96936],[-96.17553,16.96736],[-96.1706,16.96341],[-96.17098,16.96038],[-96.16879,16.9596],[-96.16381,16.96241],[-96.15846,16.95928],[-96.15572,16.95901],[-96.15295,16.9608],[-96.15129,16.95957],[-96.14438,16.9669],[-96.1317,16.97451],[-96.12798,16.98236],[-96.11734,16.98568],[-96.10408,16.98286],[-96.10795,16.98011],[-96.11069,16.97362],[-96.11052,16.97213],[-96.10549,16.97201],[-96.10398,16.96875],[-96.10554,16.96049],[-96.10948,16.95621],[-96.1088,16.95346],[-96.10271,16.95006],[-96.0983,16.9509],[-96.09508,16.94891],[-96.08339,16.9499],[-96.08111,16.95241],[-96.08278,16.9578],[-96.0808,16.96102],[-96.08006,16.96759],[-96.07144,16.9734],[-96.07273,16.97564],[-96.07109,16.97946],[-96.07476,16.9867],[-96.07162,16.98758],[-96.07121,16.98633],[-96.06867,16.98833],[-96.05971,16.98576],[-96.05468,16.98575],[-96.05,16.98738],[-96.04386,16.99133],[-96.04558,16.99404],[-96.05102,16.99563],[-96.05716,17.00128],[-96.05133,17.0118],[-96.05088,17.0158],[-96.04863,17.01855],[-96.04906,17.02228],[-96.04632,17.02619],[-96.0516,17.02687],[-96.05737,17.03365],[-96.06307,17.03471],[-96.07195,17.04061],[-96.08016,17.04316],[-96.08286,17.04688],[-96.08269,17.05175],[-96.09369,17.05661],[-96.09438,17.05531],[-96.10549,17.05572],[-96.10964,17.05262],[-96.11231,17.05495],[-96.11758,17.05241],[-96.12178,17.05786],[-96.1206,17.06455],[-96.12359,17.0671],[-96.1252,17.07101],[-96.12918,17.07311],[-96.12883,17.07888],[-96.1311,17.08286],[-96.13337,17.0843],[-96.14918,17.08231],[-96.15333,17.08464],[-96.15536,17.0832],[-96.1584,17.08528],[-96.15948,17.08848],[-96.16245,17.08997],[-96.16437,17.09644],[-96.16884,17.09841],[-96.1672,17.10612],[-96.16425,17.10959],[-96.15884,17.11192],[-96.15828,17.11837],[-96.15994,17.12303],[-96.16184,17.12447]]]}},{"type":"Feature","properties":{"shapeISO":"","shapeID":"50627088B94442795805381","shapeGroup":"MEX","shapeType":"ADM2","name":"Tamazulápam del Espíritu Santo"},"geometry":{"type":"Polygon","coordinates":[[[-96.05,16.98738],[-96.04665,16.98516],[-96.0462,16.98188],[-96.05238,16.97151],[-96.05062,16.96869],[-96.0442,16.97096],[-96.04512,16.96193],[-96.04188,16.96066],[-96.03907,16.96297],[-96.03467,16.96059],[-96.03438,16.96234],[-96.03189,16.96235],[-96.0298,16.96463],[-96.02319,16.96547],[-96.01511,16.96307],[-96.0132,16.96596],[-96.01055,16.96665],[-96.01368,16.97421],[-96.01838,16.97871],[-96.0178,16.98342],[-96.0192,16.98318],[-96.02139,16.98582],[-96.02021,16.98689],[-96.02161,16.98774],[-96.02222,16.99277],[-96.01537,17.00411],[-96.01107,17.00675],[-96.00243,17.00664],[-95.998,17.00833],[-95.99202,17.0043],[-95.98774,17.00411],[-95.98502,16.99962],[-95.98231,16.99806],[-95.98029,17.00126],[-95.98168,17.00558],[-95.97928,17.00462],[-95.97895,17.00682],[-95.97766,17.00692],[-95.97454,17.00393],[-95.97212,17.004],[-95.97343,16.99917],[-95.96943,16.99851],[-95.95878,16.99198],[-95.95571,16.99278],[-95.9523,16.9914],[-95.94517,16.99502],[-95.95705,17.00098],[-95.95866,17.00564],[-95.96042,17.00597],[-95.97221,17.02256],[-95.97427,17.03918],[-95.96287,17.0664],[-95.9608,17.08298],[-95.96804,17.0805],[-95.97083,17.08117],[-95.97179,17.08397],[-95.9777,17.08711],[-95.97983,17.09371],[-95.98479,17.09804],[-95.98846,17.09864],[-95.99442,17.10493],[-96.00411,17.09653],[-96.00344,17.07777],[-96.00886,17.07187],[-96.00879,17.06664],[-96.01359,17.06835],[-96.01359,17.06668],[-96.01493,17.06656],[-96.01608,17.06807],[-96.02804,17.06804],[-96.03105,17.06467],[-96.03468,17.06363],[-96.03821,17.06567],[-96.0383,17.06789],[-96.04669,17.07037],[-96.04995,17.06986],[-96.05099,17.06826],[-96.05474,17.06857],[-96.05547,17.06996],[-96.06018,17.06873],[-96.06125,17.07079],[-96.06715,17.0696],[-96.06729,17.07094],[-96.06943,17.07056],[-96.07517,17.07341],[-96.08118,17.07154],[-96.08328,17.06707],[-96.08475,17.07189],[-96.08719,17.07379],[-96.09163,17.0673],[-96.09662,17.07023],[-96.09592,17.07636],[-96.10518,17.07798],[-96.10963,17.07508],[-96.11488,17.07572],[-96.1136,17.06445],[-96.1206,17.06455],[-96.12178,17.05786],[-96.11758,17.05241],[-96.11231,17.05495],[-96.10964,17.05262],[-96.10549,17.05572],[-96.09438,17.05531],[-96.09369,17.05661],[-96.08269,17.05175],[-96.08286,17.04688],[-96.08016,17.04316],[-96.07195,17.04061],[-96.06307,17.03471],[-96.05737,17.03365],[-96.0516,17.02687],[-96.04632,17.02619],[-96.04906,17.02228],[-96.04863,17.01855],[-96.05088,17.0158],[-96.05133,17.0118],[-96.05716,17.00128],[-96.05102,16.99563],[-96.04558,16.99404],[-96.04386,16.99133],[-96.05,16.98738]]]}},{"type":"Feature","properties":{"shapeISO":"","shapeID":"50627088B33658307136854","shapeGroup":"MEX","shapeType":"ADM2","name":"San Juan Diuxi"},"geometry":{"type":"Polygon","coordinates":[[[-97.41489,17.29194],[-97.41414,17.28556],[-97.4104,17.28256],[-97.40849,17.25263],[-97.41337,17.23429],[-97.40772,17.2329],[-97.40101,17.23642],[-97.3997,17.23815],[-97.39931,17.24921],[-97.39019,17.24955],[-97.37934,17.2555],[-97.35738,17.25459],[-97.36026,17.25536],[-97.36006,17.26172],[-97.36192,17.26752],[-97.35593,17.279],[-97.34886,17.28403],[-97.35532,17.2869],[-97.35604,17.28906],[-97.36025,17.29217],[-97.36585,17.29266],[-97.3653,17.29353],[-97.36852,17.29643],[-97.38472,17.30181],[-97.39015,17.30185],[-97.39605,17.30647],[-97.39149,17.30827],[-97.42062,17.31564],[-97.4188,17.30265],[-97.41489,17.29194]]]}},{"type":"Feature","properties":{"shapeISO":"","shapeID":"50627088B40383448618383","shapeGroup":"MEX","shapeType":"ADM2","name":"San Francisco Jaltepetongo"},"geometry":{"type":"Polygon","coordinates":[[[-97.2495,17.3932],[-97.25612,17.39297],[-97.27319,17.3889],[-97.2892,17.37995],[-97.28902,17.37324],[-97.2992,17.3582],[-97.30176,17.35217],[-97.30262,17.34252],[-97.30607,17.33649],[-97.29999,17.32121],[-97.30213,17.31337],[-97.30198,17.29032],[-97.28903,17.29731],[-97.25797,17.32073],[-97.24838,17.35133],[-97.24526,17.35534],[-97.24317,17.36448],[-97.24541,17.38535],[-97.24706,17.3861],[-97.2495,17.3932]]]}},{"type":"Feature","properties":{"shapeISO":"","shapeID":"50627088B44636472073228","shapeGroup":"MEX","shapeType":"ADM2","name":"San Francisco Cahuacuá"},"geometry":{"type":"Polygon","coordinates":[[[-97.24094,16.93039],[-97.3007,16.95178],[-97.32265,16.95022],[-97.34846,16.94253],[-97.3541,16.94501],[-97.37943,16.94078],[-97.43703,16.94087],[-97.43747,16.93904],[-97.43924,16.93863],[-97.43876,16.93531],[-97.43367,16.9359],[-97.43385,16.93189],[-97.42874,16.93336],[-97.42284,16.93076],[-97.42218,16.92859],[-97.41854,16.92766],[-97.41649,16.92529],[-97.41469,16.91399],[-97.40773,16.91529],[-97.40607,16.91043],[-97.41682,16.89323],[-97.42843,16.88838],[-97.4208,16.88477],[-97.41971,16.88211],[-97.41062,16.87616],[-97.41246,16.87244],[-97.40956,16.8718],[-97.40802,16.86786],[-97.38343,16.86411],[-97.37377,16.84757],[-97.37011,16.8352],[-97.36741,16.8317],[-97.36714,16.8275],[-97.37122,16.81887],[-97.37998,16.81441],[-97.45169,16.81211],[-97.48955,16.80299],[-97.50142,16.79122],[-97.51469,16.78325],[-97.50995,16.77948],[-97.50508,16.76919],[-97.49994,16.76304],[-97.48364,16.75623],[-97.4644,16.7515],[-97.45844,16.74067],[-97.44824,16.71341],[-97.44991,16.70934],[-97.42378,16.73725],[-97.41438,16.74939],[-97.38539,16.80359],[-97.35598,16.80156],[-97.35476,16.80873],[-97.3471,16.81637],[-97.34612,16.81912],[-97.34064,16.81693],[-97.34025,16.81473],[-97.34203,16.81526],[-97.34278,16.81351],[-97.33893,16.81122],[-97.3356,16.81292],[-97.33356,16.81031],[-97.33201,16.81382],[-97.32448,16.81531],[-97.32055,16.82061],[-97.32009,16.82423],[-97.30625,16.83682],[-97.30428,16.84206],[-97.3004,16.84675],[-97.30018,16.85059],[-97.29502,16.84943],[-97.29152,16.85469],[-97.28933,16.86119],[-97.29134,16.86556],[-97.282,16.87766],[-97.2839,16.89208],[-97.28073,16.89625],[-97.2692,16.89805],[-97.2659,16.89633],[-97.26347,16.89916],[-97.24987,16.90037],[-97.24423,16.90245],[-97.23939,16.90086],[-97.22995,16.90065],[-97.22173,16.90614],[-97.20879,16.91872],[-97.21245,16.91808],[-97.24094,16.93039]]]}},{"type":"Feature","properties":{"shapeISO":"","shapeID":"50627088B7651687124924","shapeGroup":"MEX","shapeType":"ADM2","name":"San Bartolomé Yucuañe"},"geometry":{"type":"Polygon","coordinates":[[[-97.41489,17.29194],[-97.44808,17.28201],[-97.4958,17.27049],[-97.48986,17.2655],[-97.49018,17.2413],[-97.49171,17.23493],[-97.48281,17.22988],[-97.47959,17.20729],[-97.48315,17.18437],[-97.48198,17.16434],[-97.47852,17.16851],[-97.47465,17.16725],[-97.47239,17.16805],[-97.4709,17.16651],[-97.46954,17.16983],[-97.46721,17.16971],[-97.46051,17.17429],[-97.45722,17.1747],[-97.44526,17.16293],[-97.44632,17.16049],[-97.44417,17.15893],[-97.44433,17.15646],[-97.43986,17.14827],[-97.44113,17.14569],[-97.44041,17.13981],[-97.44278,17.13415],[-97.43751,17.13387],[-97.42969,17.13884],[-97.42275,17.14674],[-97.42356,17.15045],[-97.43098,17.18511],[-97.42836,17.18909],[-97.42926,17.19365],[-97.43154,17.19603],[-97.43211,17.20109],[-97.43082,17.21397],[-97.42676,17.22567],[-97.42465,17.24252],[-97.42564,17.24719],[-97.42062,17.24457],[-97.41489,17.29194]]]}},{"type":"Feature","properties":{"shapeISO":"","shapeID":"50627088B9411614627727","shapeGroup":"MEX","shapeType":"ADM2","name":"Villa Hidalgo"},"geometry":{"type":"Polygon","coordinates":[[[-96.20024,17.17721],[-96.19921,17.17422],[-96.19526,17.17065],[-96.19436,17.1672],[-96.19168,17.16706],[-96.18587,17.15966],[-96.18334,17.15078],[-96.1791,17.14529],[-96.17115,17.13855],[-96.16817,17.13821],[-96.16717,17.13494],[-96.16211,17.1321],[-96.16184,17.13222],[-96.15851,17.13167],[-96.15737,17.13415],[-96.15382,17.13505],[-96.14497,17.14724],[-96.1425,17.1496],[-96.14081,17.14898],[-96.13852,17.15058],[-96.13806,17.15262],[-96.13477,17.15437],[-96.13297,17.15203],[-96.13034,17.15172],[-96.12629,17.16248],[-96.11663,17.16586],[-96.11897,17.16917],[-96.11963,17.17546],[-96.11803,17.17954],[-96.11611,17.1795],[-96.11617,17.18098],[-96.11359,17.18231],[-96.11653,17.18814],[-96.11606,17.19223],[-96.12413,17.19781],[-96.12918,17.19888],[-96.13147,17.20397],[-96.13867,17.20731],[-96.16601,17.21059],[-96.16899,17.22999],[-96.17627,17.23544],[-96.18422,17.2372],[-96.18309,17.23414],[-96.18483,17.23085],[-96.18389,17.22906],[-96.18824,17.22713],[-96.18651,17.22393],[-96.18932,17.22202],[-96.18786,17.21623],[-96.1921,17.21302],[-96.19123,17.20747],[-96.19446,17.20713],[-96.19262,17.20364],[-96.19502,17.19687],[-96.19357,17.19195],[-96.19229,17.19212],[-96.19347,17.19081],[-96.19406,17.18812],[-96.19234,17.18697],[-96.19502,17.18447],[-96.19445,17.18135],[-96.19669,17.18079],[-96.19553,17.17847],[-96.20024,17.17721]]]}},{"type":"Feature","properties":{"shapeISO":"","shapeID":"50627088B89957955277288","shapeGroup":"MEX","shapeType":"ADM2","name":"Coatecas Altas"},"geometry":{"type":"Polygon","coordinates":[[[-96.59295,16.52845],[-96.61366,16.52666],[-96.61076,16.52848],[-96.61122,16.53551],[-96.61407,16.54135],[-96.61923,16.54275],[-96.62214,16.54602],[-96.62256,16.54911],[-96.62075,16.55207],[-96.62168,16.55656],[-96.62641,16.55281],[-96.63126,16.5513],[-96.63904,16.554],[-96.64723,16.5468],[-96.64335,16.56353],[-96.65017,16.57099],[-96.65599,16.5737],[-96.6603,16.57834],[-96.66159,16.5804],[-96.66035,16.58375],[-96.66535,16.59066],[-96.66813,16.59244],[-96.68283,16.58886],[-96.67307,16.58746],[-96.67724,16.58253],[-96.68005,16.57378],[-96.67782,16.57286],[-96.67851,16.56053],[-96.69737,16.543],[-96.6871,16.54019],[-96.6862,16.53679],[-96.68313,16.53525],[-96.68786,16.53001],[-96.68897,16.5261],[-96.69629,16.51817],[-96.69809,16.51373],[-96.69771,16.50932],[-96.71089,16.50426],[-96.70999,16.50087],[-96.70322,16.49506],[-96.67538,16.48131],[-96.67408,16.4844],[-96.66905,16.48341],[-96.65985,16.48807],[-96.66111,16.47264],[-96.64348,16.46875],[-96.635,16.46174],[-96.63352,16.45598],[-96.63237,16.45813],[-96.63324,16.46306],[-96.62825,16.47239],[-96.62016,16.46944],[-96.61486,16.47206],[-96.61053,16.47086],[-96.61062,16.4699],[-96.61451,16.47064],[-96.61123,16.46918],[-96.61266,16.46664],[-96.61194,16.46374],[-96.60804,16.46251],[-96.60528,16.45928],[-96.59979,16.46079],[-96.59437,16.46839],[-96.5895,16.46953],[-96.59136,16.47304],[-96.5863,16.47714],[-96.57988,16.47544],[-96.57702,16.4769],[-96.56927,16.47645],[-96.5595,16.47822],[-96.55821,16.47945],[-96.56419,16.48905],[-96.56655,16.4888],[-96.56641,16.49197],[-96.57085,16.49465],[-96.57358,16.49427],[-96.56116,16.50087],[-96.56034,16.5026],[-96.56277,16.50742],[-96.55904,16.5109],[-96.56118,16.5206],[-96.57421,16.52913],[-96.58639,16.52979],[-96.59295,16.52845]]]}},{"type":"Feature","properties":{"shapeISO":"","shapeID":"50627088B57748910151999","shapeGroup":"MEX","shapeType":"ADM2","name":"Asunción Cacalotepec"},"geometry":{"type":"Polygon","coordinates":[[[-95.94517,16.99502],[-95.93972,16.99656],[-95.93551,16.99568],[-95.93467,16.99974],[-95.93182,17.00018],[-95.92312,16.99718],[-95.91932,16.99905],[-95.91657,16.9965],[-95.90894,16.99578],[-95.90637,16.99138],[-95.90549,16.99512],[-95.90394,16.9954],[-95.89186,16.98888],[-95.88757,16.99013],[-95.88472,16.99282],[-95.87855,16.99335],[-95.87128,17.00253],[-95.87472,17.00658],[-95.86992,17.01063],[-95.87282,17.01571],[-95.87612,17.0175],[-95.88024,17.01729],[-95.88355,17.02111],[-95.89139,17.02577],[-95.89764,17.02475],[-95.90072,17.02584],[-95.89677,17.02931],[-95.88905,17.03302],[-95.8874,17.03185],[-95.88523,17.03364],[-95.88156,17.04301],[-95.88627,17.04523],[-95.88844,17.04894],[-95.89099,17.049],[-95.89324,17.05129],[-95.89373,17.05513],[-95.90199,17.06319],[-95.91086,17.06539],[-95.91306,17.06809],[-95.93252,17.07939],[-95.94155,17.08815],[-95.94701,17.08652],[-95.94906,17.08345],[-95.95294,17.0843],[-95.95675,17.08186],[-95.9608,17.08298],[-95.96287,17.0664],[-95.97427,17.03918],[-95.97221,17.02256],[-95.96042,17.00597],[-95.95866,17.00564],[-95.95705,17.00098],[-95.94517,16.99502]]]}},{"type":"Feature","properties":{"shapeISO":"","shapeID":"50627088B68012167176325","shapeGroup":"MEX","shapeType":"ADM2","name":"Abejones"},"geometry":{"type":"Polygon","coordinates":[[[-96.62002,17.55819],[-96.62106,17.55787],[-96.62141,17.56031],[-96.6197,17.56701],[-96.63449,17.56148],[-96.64529,17.56304],[-96.65101,17.56024],[-96.65863,17.55652],[-96.66882,17.54664],[-96.6967,17.53125],[-96.71552,17.50232],[-96.7122,17.49559],[-96.70805,17.49217],[-96.684,17.48744],[-96.67208,17.48748],[-96.66798,17.4953],[-96.66015,17.50035],[-96.65654,17.50637],[-96.63495,17.50646],[-96.64528,17.49866],[-96.64931,17.4876],[-96.6618,17.47558],[-96.65498,17.46769],[-96.64092,17.46099],[-96.64153,17.44448],[-96.6342,17.43716],[-96.64492,17.427],[-96.64105,17.42719],[-96.6384,17.42388],[-96.63176,17.4225],[-96.62076,17.41567],[-96.61005,17.41289],[-96.57184,17.41295],[-96.57051,17.41983],[-96.57407,17.42666],[-96.57273,17.43575],[-96.5773,17.4361],[-96.57923,17.43876],[-96.57866,17.44082],[-96.58282,17.44162],[-96.5808,17.45049],[-96.57864,17.45157],[-96.57686,17.44893],[-96.57153,17.45387],[-96.57596,17.45317],[-96.58503,17.45637],[-96.58268,17.46377],[-96.58226,17.46498],[-96.58649,17.46923],[-96.58511,17.47344],[-96.58812,17.47525],[-96.58482,17.47898],[-96.58564,17.48303],[-96.59226,17.49],[-96.59712,17.49811],[-96.60102,17.49972],[-96.60191,17.50516],[-96.59819,17.51173],[-96.60343,17.51874],[-96.60497,17.52676],[-96.60698,17.52855],[-96.60982,17.52721],[-96.61148,17.52797],[-96.61176,17.53309],[-96.61029,17.53379],[-96.61144,17.53868],[-96.60942,17.54151],[-96.61188,17.5433],[-96.61245,17.5461],[-96.61519,17.54733],[-96.61567,17.55109],[-96.61847,17.55475],[-96.61708,17.55768],[-96.62002,17.55819]]]}},{"type":"Feature","properties":{"shapeISO":"","shapeID":"50627088B10817237938437","shapeGroup":"MEX","shapeType":"ADM2","name":"San Pedro Topiltepec"},"geometry":{"type":"Polygon","coordinates":[[[-97.32605,17.43098],[-97.32689,17.44372],[-97.33889,17.44929],[-97.33698,17.45688],[-97.33765,17.46914],[-97.34083,17.47804],[-97.34408,17.48344],[-97.35377,17.49108],[-97.3563,17.49131],[-97.36608,17.48415],[-97.38086,17.47984],[-97.38949,17.47375],[-97.3862,17.45872],[-97.38034,17.44342],[-97.37504,17.43747],[-97.3687,17.43399],[-97.36515,17.42882],[-97.36477,17.42417],[-97.36122,17.42647],[-97.35657,17.42514],[-97.35653,17.4262],[-97.35001,17.42693],[-97.34356,17.42363],[-97.33177,17.42278],[-97.32933,17.42326],[-97.32605,17.43098]]]}},{"type":"Feature","properties":{"shapeISO":"","shapeID":"50627088B21905525899656","shapeGroup":"MEX","shapeType":"ADM2","name":"San Pedro Tidaá"},"geometry":{"type":"Polygon","coordinates":[[[-97.39149,17.30827],[-97.36708,17.31455],[-97.3655,17.31709],[-97.33886,17.33352],[-97.34793,17.34351],[-97.35461,17.34856],[-97.35717,17.35307],[-97.36016,17.36521],[-97.39323,17.36372],[-97.44307,17.34844],[-97.44192,17.34231],[-97.43171,17.32567],[-97.42062,17.31564],[-97.39149,17.30827]]]}},{"type":"Feature","properties":{"shapeISO":"","shapeID":"50627088B69168049256602","shapeGroup":"MEX","shapeType":"ADM2","name":"San Pedro Teozacoalco"},"geometry":{"type":"Polygon","coordinates":[[[-97.24094,16.93039],[-97.23959,16.93096],[-97.2409,16.93704],[-97.24848,16.94366],[-97.24211,16.94803],[-97.23487,16.95907],[-97.23332,16.97506],[-97.23442,16.98673],[-97.23862,16.9907],[-97.25219,16.98979],[-97.25837,16.99283],[-97.26382,16.99782],[-97.2665,16.99792],[-97.26813,16.99606],[-97.27022,16.98568],[-97.2714,16.98559],[-97.27521,16.9883],[-97.27992,16.99482],[-97.28236,17.0],[-97.28319,17.00645],[-97.28226,17.01055],[-97.2788,17.01192],[-97.27902,17.01313],[-97.27456,17.01351],[-97.2711,17.01172],[-97.26742,17.00511],[-97.26056,17.00614],[-97.25497,17.00185],[-97.23864,17.00409],[-97.23374,17.00613],[-97.22687,17.00557],[-97.22819,17.01489],[-97.23379,17.01779],[-97.23239,17.02228],[-97.23594,17.03165],[-97.23256,17.03569],[-97.24487,17.0506],[-97.25409,17.07549],[-97.26208,17.06871],[-97.2664,17.05788],[-97.27338,17.04797],[-97.27076,17.03865],[-97.27389,17.03723],[-97.27904,17.03777],[-97.28744,17.0304],[-97.28855,17.02782],[-97.29718,17.02723],[-97.30036,17.0289],[-97.30643,17.02535],[-97.30994,17.03213],[-97.3071,17.03703],[-97.31174,17.03661],[-97.3214,17.03918],[-97.32398,17.03018],[-97.32243,17.02607],[-97.32254,17.01984],[-97.31861,17.01482],[-97.32318,17.00908],[-97.32295,16.99689],[-97.31727,16.98244],[-97.31562,16.98172],[-97.31659,16.97683],[-97.31422,16.97132],[-97.31897,16.96444],[-97.31866,16.95804],[-97.31983,16.95686],[-97.32227,16.95795],[-97.32387,16.95544],[-97.32265,16.95022],[-97.3007,16.95178],[-97.24094,16.93039]]]}},{"type":"Feature","properties":{"shapeISO":"","shapeID":"50627088B89974538637092","shapeGroup":"MEX","shapeType":"ADM2","name":"San Pablo Tijaltepec"},"geometry":{"type":"Polygon","coordinates":[[[-97.52736,17.01794],[-97.52552,17.0005],[-97.51788,16.97946],[-97.50991,16.98323],[-97.49907,16.97717],[-97.48774,16.97587],[-97.48238,16.97356],[-97.47706,16.96587],[-97.46395,16.93788],[-97.45116,16.93087],[-97.44338,16.93393],[-97.44642,16.93799],[-97.43703,16.94087],[-97.43604,16.94504],[-97.42822,16.95135],[-97.42477,16.94915],[-97.4212,16.951],[-97.42248,16.97596],[-97.4169,16.99683],[-97.42184,17.01792],[-97.41973,17.02367],[-97.44037,17.02536],[-97.44429,17.02726],[-97.44425,17.02891],[-97.44759,17.03197],[-97.44741,17.0341],[-97.45195,17.0361],[-97.45468,17.04094],[-97.4542,17.04887],[-97.45794,17.06142],[-97.456,17.06656],[-97.46057,17.07485],[-97.46322,17.07686],[-97.47233,17.07905],[-97.47573,17.07906],[-97.47746,17.0771],[-97.49019,17.07122],[-97.50478,17.06911],[-97.51294,17.06786],[-97.52002,17.03371],[-97.52736,17.01794]]]}},{"type":"Feature","properties":{"shapeISO":"","shapeID":"50627088B83273926369919","shapeGroup":"MEX","shapeType":"ADM2","name":"San Miguel Tecomatlán"},"geometry":{"type":"Polygon","coordinates":[[[-97.31096,17.38369],[-97.31852,17.34087],[-97.31646,17.34121],[-97.30607,17.33649],[-97.30262,17.34252],[-97.30176,17.35217],[-97.2992,17.3582],[-97.28902,17.37324],[-97.2892,17.37995],[-97.27319,17.3889],[-97.25612,17.39297],[-97.2495,17.3932],[-97.2466,17.39687],[-97.25156,17.40553],[-97.2632,17.40586],[-97.29534,17.39795],[-97.29596,17.39879],[-97.31096,17.38369]]]}},{"type":"Feature","properties":{"shapeISO":"","shapeID":"50627088B74444100420384","shapeGroup":"MEX","shapeType":"ADM2","name":"San Miguel Piedras"},"geometry":{"type":"Polygon","coordinates":[[[-97.20879,16.91872],[-97.19561,16.96027],[-97.19659,16.97672],[-97.17025,16.97957],[-97.16541,16.99716],[-97.17504,17.00858],[-97.18895,17.0156],[-97.18932,17.01957],[-97.19514,17.02876],[-97.19833,17.03899],[-97.20825,17.0246],[-97.2074,17.00521],[-97.23256,17.03569],[-97.23594,17.03165],[-97.23239,17.02228],[-97.23379,17.01779],[-97.22819,17.01489],[-97.22687,17.00557],[-97.23374,17.00613],[-97.23864,17.00409],[-97.25497,17.00185],[-97.26056,17.00614],[-97.26742,17.00511],[-97.2711,17.01172],[-97.27456,17.01351],[-97.27902,17.01313],[-97.2788,17.01192],[-97.28226,17.01055],[-97.28319,17.00645],[-97.28236,17.0],[-97.27992,16.99482],[-97.27521,16.9883],[-97.2714,16.98559],[-97.27022,16.98568],[-97.26813,16.99606],[-97.2665,16.99792],[-97.26382,16.99782],[-97.25837,16.99283],[-97.25219,16.98979],[-97.23862,16.9907],[-97.23442,16.98673],[-97.23332,16.97506],[-97.23487,16.95907],[-97.24211,16.94803],[-97.24848,16.94366],[-97.2409,16.93704],[-97.23959,16.93096],[-97.24094,16.93039],[-97.21245,16.91808],[-97.20879,16.91872]]]}},{"type":"Feature","properties":{"shapeISO":"","shapeID":"50627088B14664801571450","shapeGroup":"MEX","shapeType":"ADM2","name":"San Miguel Achiutla"},"geometry":{"type":"Polygon","coordinates":[[[-97.42062,17.31564],[-97.43171,17.32567],[-97.44192,17.34231],[-97.44307,17.34844],[-97.44274,17.34948],[-97.48829,17.33422],[-97.49166,17.326],[-97.49411,17.32583],[-97.50483,17.31683],[-97.50921,17.31587],[-97.51273,17.32044],[-97.51382,17.3194],[-97.51674,17.32097],[-97.52118,17.3242],[-97.52182,17.3267],[-97.52917,17.33057],[-97.53469,17.33307],[-97.52753,17.31599],[-97.52745,17.30967],[-97.52578,17.30659],[-97.53083,17.29726],[-97.53073,17.29459],[-97.53377,17.29338],[-97.53849,17.29471],[-97.54025,17.29034],[-97.52859,17.28963],[-97.52533,17.28754],[-97.52137,17.29048],[-97.5011,17.26999],[-97.4958,17.27049],[-97.44808,17.28201],[-97.41489,17.29194],[-97.4188,17.30265],[-97.42062,17.31564]]]}},{"type":"Feature","properties":{"shapeISO":"","shapeID":"50627088B43932249609701","shapeGroup":"MEX","shapeType":"ADM2","name":"San Mateo Sindihui"},"geometry":{"type":"Polygon","coordinates":[[[-97.32265,16.95022],[-97.32387,16.95544],[-97.32227,16.95795],[-97.31983,16.95686],[-97.31866,16.95804],[-97.31897,16.96444],[-97.31422,16.97132],[-97.31659,16.97683],[-97.31562,16.98172],[-97.31727,16.98244],[-97.32295,16.99689],[-97.32318,17.00908],[-97.31861,17.01482],[-97.32254,17.01984],[-97.32243,17.02607],[-97.32398,17.03018],[-97.3214,17.03918],[-97.32442,17.05021],[-97.32779,17.05386],[-97.33226,17.05407],[-97.33398,17.05563],[-97.33489,17.0595],[-97.33231,17.06275],[-97.33276,17.06455],[-97.33838,17.0651],[-97.34146,17.06094],[-97.34479,17.06363],[-97.34672,17.06319],[-97.3476,17.05967],[-97.34906,17.06205],[-97.35063,17.06214],[-97.3494,17.05756],[-97.35075,17.05588],[-97.35381,17.0566],[-97.35366,17.05245],[-97.3648,17.05951],[-97.38073,17.09579],[-97.39182,17.11389],[-97.40201,17.03328],[-97.41973,17.02367],[-97.42184,17.01792],[-97.4169,16.99683],[-97.42248,16.97596],[-97.4212,16.951],[-97.42477,16.94915],[-97.42822,16.95135],[-97.43604,16.94504],[-97.43703,16.94087],[-97.37943,16.94078],[-97.3541,16.94501],[-97.34846,16.94253],[-97.32265,16.95022]]]}},{"type":"Feature","properties":{"shapeISO":"","shapeID":"50627088B42338204291067","shapeGroup":"MEX","shapeType":"ADM2","name":"San Mateo Peñasco"},"geometry":{"type":"Polygon","coordinates":[[[-97.48198,17.16434],[-97.48278,17.1616],[-97.48547,17.16128],[-97.48726,17.16426],[-97.49157,17.16519],[-97.49857,17.16309],[-97.50885,17.16337],[-97.50857,17.16548],[-97.51054,17.16808],[-97.518,17.17068],[-97.51897,17.17365],[-97.52126,17.17456],[-97.52045,17.1755],[-97.52832,17.17475],[-97.5344,17.17126],[-97.54238,17.17354],[-97.54702,17.16883],[-97.5502,17.16775],[-97.54975,17.16505],[-97.54531,17.15972],[-97.55144,17.1477],[-97.55238,17.14278],[-97.55578,17.13909],[-97.56154,17.13641],[-97.56266,17.12975],[-97.56648,17.12824],[-97.56705,17.12523],[-97.55922,17.12117],[-97.55123,17.12103],[-97.54121,17.12487],[-97.52972,17.13295],[-97.52527,17.13477],[-97.52113,17.14059],[-97.51541,17.14466],[-97.49059,17.14036],[-97.48713,17.12889],[-97.48336,17.1201],[-97.4748,17.10655],[-97.47547,17.10488],[-97.46677,17.10801],[-97.44739,17.11936],[-97.44202,17.1256],[-97.43764,17.13161],[-97.43751,17.13387],[-97.44278,17.13415],[-97.44041,17.13981],[-97.44113,17.14569],[-97.43986,17.14827],[-97.44433,17.15646],[-97.44417,17.15893],[-97.44632,17.16049],[-97.44526,17.16293],[-97.45722,17.1747],[-97.46051,17.17429],[-97.46721,17.16971],[-97.46954,17.16983],[-97.4709,17.16651],[-97.47239,17.16805],[-97.47465,17.16725],[-97.47852,17.16851],[-97.48198,17.16434]]]}},{"type":"Feature","properties":{"shapeISO":"","shapeID":"50627088B15495496169885","shapeGroup":"MEX","shapeType":"ADM2","name":"San Mateo Etlatongo"},"geometry":{"type":"Polygon","coordinates":[[[-97.29534,17.39795],[-97.2632,17.40586],[-97.25156,17.40553],[-97.24817,17.40414],[-97.23296,17.41608],[-97.22529,17.42016],[-97.2303,17.42447],[-97.2286,17.4277],[-97.23285,17.42791],[-97.23331,17.43001],[-97.23628,17.43088],[-97.23398,17.42655],[-97.25681,17.4491],[-97.28778,17.4367],[-97.28473,17.43164],[-97.28651,17.42852],[-97.28427,17.42543],[-97.2815,17.4246],[-97.28238,17.42356],[-97.29207,17.42472],[-97.2922,17.42354],[-97.28811,17.42275],[-97.28775,17.41946],[-97.29534,17.39795]]]}},{"type":"Feature","properties":{"shapeISO":"","shapeID":"50627088B55125244226498","shapeGroup":"MEX","shapeType":"ADM2","name":"San Lorenzo Texmelúcan"},"geometry":{"type":"Polygon","coordinates":[[[-97.2868,16.49568],[-97.28681,16.4936],[-97.2827,16.49369],[-97.27873,16.4968],[-97.27365,16.49662],[-97.27419,16.49307],[-97.27142,16.49169],[-97.26962,16.4941],[-97.26663,16.49297],[-97.26435,16.49469],[-97.26051,16.49359],[-97.25844,16.49517],[-97.25772,16.49203],[-97.25545,16.4929],[-97.24767,16.48859],[-97.24798,16.49113],[-97.24199,16.4941],[-97.23853,16.49331],[-97.23668,16.49506],[-97.23426,16.49186],[-97.22875,16.49184],[-97.22681,16.48799],[-97.22208,16.48824],[-97.21617,16.48452],[-97.21301,16.48535],[-97.20086,16.47872],[-97.19891,16.47541],[-97.19689,16.47611],[-97.19373,16.47268],[-97.18945,16.47132],[-97.17892,16.47737],[-97.16475,16.47622],[-97.14898,16.47837],[-97.12006,16.48495],[-97.11886,16.48683],[-97.12149,16.49097],[-97.11889,16.49333],[-97.12102,16.49397],[-97.1216,16.49641],[-97.11773,16.50635],[-97.13462,16.55202],[-97.14592,16.55425],[-97.15219,16.56519],[-97.15085,16.57513],[-97.15694,16.59083],[-97.16376,16.59478],[-97.17839,16.59808],[-97.18898,16.59525],[-97.19136,16.592],[-97.20044,16.59163],[-97.21568,16.57765],[-97.22546,16.54628],[-97.22301,16.54605],[-97.22573,16.5419],[-97.22163,16.54127],[-97.22133,16.54011],[-97.22551,16.53822],[-97.22684,16.53956],[-97.22931,16.53906],[-97.22991,16.53538],[-97.23376,16.53263],[-97.23396,16.53042],[-97.23655,16.52781],[-97.23948,16.52784],[-97.24,16.5266],[-97.23867,16.52585],[-97.24091,16.52316],[-97.24462,16.52286],[-97.24644,16.5242],[-97.2484,16.52295],[-97.24963,16.52588],[-97.25661,16.52432],[-97.25514,16.52052],[-97.25651,16.51915],[-97.25607,16.51666],[-97.25985,16.51173],[-97.25887,16.50936],[-97.26137,16.50657],[-97.26947,16.51077],[-97.27263,16.50814],[-97.2763,16.50842],[-97.27669,16.50671],[-97.2783,16.50668],[-97.2788,16.50849],[-97.28316,16.50625],[-97.28516,16.50783],[-97.28795,16.50614],[-97.28928,16.50388],[-97.28784,16.50055],[-97.2887,16.49769],[-97.2868,16.49568]]]}},{"type":"Feature","properties":{"shapeISO":"","shapeID":"50627088B56157188370772","shapeGroup":"MEX","shapeType":"ADM2","name":"San Juan Teita"},"geometry":{"type":"Polygon","coordinates":[[[-97.41973,17.02367],[-97.40201,17.03328],[-97.39182,17.11389],[-97.41282,17.12092],[-97.44202,17.1256],[-97.44739,17.11936],[-97.46677,17.10801],[-97.47547,17.10488],[-97.47133,17.09422],[-97.47746,17.0771],[-97.47573,17.07906],[-97.47233,17.07905],[-97.46322,17.07686],[-97.46057,17.07485],[-97.456,17.06656],[-97.45794,17.06142],[-97.4542,17.04887],[-97.45468,17.04094],[-97.45195,17.0361],[-97.44741,17.0341],[-97.44759,17.03197],[-97.44425,17.02891],[-97.44429,17.02726],[-97.44037,17.02536],[-97.41973,17.02367]]]}},{"type":"Feature","properties":{"shapeISO":"","shapeID":"50627088B40997107404186","shapeGroup":"MEX","shapeType":"ADM2","name":"Santiago Huauclilla"},"geometry":{"type":"Polygon","coordinates":[[[-97.04141,17.53484],[-97.04449,17.52948],[-97.04928,17.5268],[-97.05645,17.52585],[-97.08103,17.5183],[-97.07379,17.50625],[-97.07382,17.50175],[-97.06922,17.48945],[-97.07247,17.48715],[-97.09695,17.48402],[-97.10092,17.48751],[-97.10726,17.47696],[-97.11187,17.47558],[-97.12017,17.47589],[-97.13022,17.47211],[-97.1208,17.46062],[-97.11198,17.45346],[-97.1097,17.44528],[-97.10427,17.43885],[-97.10365,17.43506],[-97.08389,17.43074],[-97.07981,17.4321],[-97.06859,17.42692],[-97.06026,17.42806],[-97.05578,17.42385],[-97.04906,17.43368],[-97.02983,17.44653],[-97.02665,17.45102],[-97.02211,17.45282],[-97.02508,17.45488],[-97.02457,17.45971],[-97.02704,17.46129],[-97.02914,17.46628],[-97.03376,17.46738],[-97.03379,17.46865],[-97.03076,17.47617],[-97.03227,17.48097],[-97.019,17.48018],[-97.01749,17.49796],[-97.01311,17.50065],[-97.00632,17.49951],[-97.00582,17.50068],[-97.00414,17.49947],[-97.00212,17.50071],[-96.9907,17.5008],[-96.9861,17.50745],[-96.97604,17.50883],[-96.9637,17.5227],[-96.96207,17.52793],[-96.95902,17.53266],[-96.95628,17.53374],[-96.95593,17.53665],[-96.95847,17.54565],[-96.98083,17.54573],[-96.97765,17.55095],[-96.98739,17.55595],[-96.99329,17.54597],[-97.01163,17.5516],[-97.01213,17.54643],[-97.01405,17.54237],[-97.01641,17.54082],[-96.99355,17.52238],[-96.99541,17.50639],[-97.02169,17.51509],[-97.03056,17.52264],[-97.04141,17.53484]]]}},{"type":"Feature","properties":{"shapeISO":"","shapeID":"50627088B1802746700322","shapeGroup":"MEX","shapeType":"ADM2","name":"Santa María Zaniza"},"geometry":{"type":"Polygon","coordinates":[[[-97.4074,16.59645],[-97.40467,16.59708],[-97.38921,16.57834],[-97.38117,16.58651],[-97.37105,16.59061],[-97.36726,16.58957],[-97.36274,16.58072],[-97.35902,16.58133],[-97.36162,16.5857],[-97.35497,16.59528],[-97.35408,16.60223],[-97.34986,16.60572],[-97.34916,16.61007],[-97.34621,16.61331],[-97.33809,16.61769],[-97.33103,16.61767],[-97.29478,16.60563],[-97.28595,16.60851],[-97.27987,16.6139],[-97.27312,16.61593],[-97.26663,16.62672],[-97.26018,16.62987],[-97.25787,16.63843],[-97.24682,16.64221],[-97.27521,16.66012],[-97.27836,16.6496],[-97.28527,16.65359],[-97.29773,16.65749],[-97.29905,16.66049],[-97.29195,16.67034],[-97.32119,16.68954],[-97.4086,16.68579],[-97.43446,16.6783],[-97.45065,16.6646],[-97.42859,16.61843],[-97.42405,16.61319],[-97.4126,16.6044],[-97.40789,16.59915],[-97.4074,16.59645]]]}},{"type":"Feature","properties":{"shapeISO":"","shapeID":"50627088B13897730718633","shapeGroup":"MEX","shapeType":"ADM2","name":"Santa María Yolotepec"},"geometry":{"type":"Polygon","coordinates":[[[-97.42843,16.88838],[-97.45238,16.89945],[-97.4592,16.89484],[-97.46641,16.8922],[-97.4737,16.8859],[-97.4781,16.88797],[-97.48435,16.88675],[-97.49876,16.88794],[-97.50571,16.88655],[-97.50817,16.88443],[-97.50885,16.87966],[-97.51473,16.87604],[-97.51178,16.87244],[-97.50964,16.87191],[-97.46226,16.87661],[-97.46205,16.8754],[-97.46026,16.87544],[-97.45473,16.87805],[-97.40802,16.86786],[-97.40956,16.8718],[-97.41246,16.87244],[-97.41062,16.87616],[-97.41971,16.88211],[-97.4208,16.88477],[-97.42843,16.88838]]]}},{"type":"Feature","properties":{"shapeISO":"","shapeID":"50627088B49093080347396","shapeGroup":"MEX","shapeType":"ADM2","name":"Santa María Tataltepec"},"geometry":{"type":"Polygon","coordinates":[[[-97.43751,17.13387],[-97.43764,17.13161],[-97.44202,17.1256],[-97.41282,17.12092],[-97.39182,17.11389],[-97.38073,17.09579],[-97.37569,17.09738],[-97.37207,17.10356],[-97.37254,17.10901],[-97.36986,17.10945],[-97.3667,17.11331],[-97.36809,17.12861],[-97.36515,17.13602],[-97.36508,17.14387],[-97.36838,17.15596],[-97.36859,17.16213],[-97.37441,17.16012],[-97.37777,17.1625],[-97.3842,17.16024],[-97.39288,17.15979],[-97.3936,17.161],[-97.39059,17.16496],[-97.39075,17.16686],[-97.38473,17.17648],[-97.40153,17.17708],[-97.40639,17.17148],[-97.40304,17.15778],[-97.41481,17.15885],[-97.42356,17.15045],[-97.42275,17.14674],[-97.42969,17.13884],[-97.43751,17.13387]]]}},{"type":"Feature","properties":{"shapeISO":"","shapeID":"50627088B10783162199748","shapeGroup":"MEX","shapeType":"ADM2","name":"Santa María Sola"},"geometry":{"type":"Polygon","coordinates":[[[-96.99678,16.59214],[-97.00548,16.59983],[-97.03016,16.60521],[-97.02764,16.60607],[-97.02714,16.61093],[-97.02966,16.61047],[-97.03199,16.61501],[-97.03495,16.61678],[-97.03508,16.61871],[-97.03769,16.61863],[-97.04219,16.61385],[-97.04451,16.61406],[-97.05281,16.60848],[-97.04702,16.60629],[-97.04049,16.60159],[-97.02576,16.59714],[-97.02485,16.58738],[-97.02221,16.585],[-97.02106,16.57554],[-97.03936,16.57457],[-97.04826,16.56924],[-97.05565,16.57174],[-97.05592,16.5661],[-97.05798,16.56189],[-97.06155,16.56409],[-97.06678,16.56321],[-97.07858,16.55651],[-97.06909,16.53446],[-97.05728,16.52467],[-97.04759,16.52004],[-97.04342,16.51554],[-97.04151,16.5152],[-97.011,16.53786],[-97.01683,16.54649],[-97.0074,16.54935],[-97.0061,16.54391],[-97.00341,16.54296],[-96.99731,16.54752],[-96.99184,16.54789],[-96.99063,16.55375],[-96.99266,16.56027],[-96.98829,16.58173],[-96.98923,16.58468],[-96.99678,16.59214]]]}},{"type":"Feature","properties":{"shapeISO":"","shapeID":"50627088B55169322722407","shapeGroup":"MEX","shapeType":"ADM2","name":"Santa Cruz Tacahua"},"geometry":{"type":"Polygon","coordinates":[[[-97.43703,16.94087],[-97.44642,16.93799],[-97.44338,16.93393],[-97.45116,16.93087],[-97.46395,16.93788],[-97.4727,16.94003],[-97.4826,16.9441],[-97.48608,16.94699],[-97.50583,16.95078],[-97.5102,16.94425],[-97.51075,16.93702],[-97.50712,16.9324],[-97.50969,16.92501],[-97.51064,16.91563],[-97.50881,16.91136],[-97.50329,16.90818],[-97.50244,16.90485],[-97.46495,16.89503],[-97.4592,16.89484],[-97.45238,16.89945],[-97.42843,16.88838],[-97.41682,16.89323],[-97.40607,16.91043],[-97.40773,16.91529],[-97.41469,16.91399],[-97.41649,16.92529],[-97.41854,16.92766],[-97.42218,16.92859],[-97.42284,16.93076],[-97.42874,16.93336],[-97.43385,16.93189],[-97.43367,16.9359],[-97.43876,16.93531],[-97.43924,16.93863],[-97.43747,16.93904],[-97.43703,16.94087]]]}},{"type":"Feature","properties":{"shapeISO":"","shapeID":"50627088B98422616932884","shapeGroup":"MEX","shapeType":"ADM2","name":"Totontepec Villa de Morelos"},"geometry":{"type":"Polygon","coordinates":[[[-95.98948,17.31992],[-96.0,17.31946],[-96.00476,17.31724],[-96.01073,17.31775],[-96.0215,17.3157],[-96.02906,17.32183],[-96.03508,17.32078],[-96.03856,17.32296],[-96.04235,17.32089],[-96.0436,17.32147],[-96.04675,17.31715],[-96.06495,17.31775],[-96.06476,17.32377],[-96.06701,17.32825],[-96.06775,17.32488],[-96.06962,17.32345],[-96.08224,17.32299],[-96.08139,17.31091],[-96.08524,17.30375],[-96.08055,17.30155],[-96.08801,17.29532],[-96.08109,17.2908],[-96.08313,17.28362],[-96.08535,17.28068],[-96.0927,17.2792],[-96.10031,17.27267],[-96.1053,17.26136],[-96.11144,17.26105],[-96.12553,17.24503],[-96.13018,17.23775],[-96.13674,17.23797],[-96.13784,17.23416],[-96.1461,17.23118],[-96.14468,17.22949],[-96.14163,17.22964],[-96.13804,17.22633],[-96.13048,17.22473],[-96.12611,17.22229],[-96.12623,17.22065],[-96.12424,17.22033],[-96.11776,17.21362],[-96.11417,17.20813],[-96.09747,17.20781],[-96.08833,17.21068],[-96.06406,17.20504],[-96.06352,17.19674],[-96.06843,17.18621],[-96.0637,17.17306],[-96.06093,17.17058],[-96.06217,17.16497],[-96.05655,17.16106],[-96.03871,17.16526],[-96.01082,17.14375],[-95.99789,17.17402],[-95.98059,17.1887],[-95.97049,17.19356],[-95.96515,17.19852],[-95.96515,17.20207],[-95.95963,17.21047],[-95.95737,17.21727],[-95.9503,17.22003],[-95.94338,17.22554],[-95.93486,17.23575],[-95.93125,17.23587],[-95.92972,17.23324],[-95.92572,17.23869],[-95.91588,17.23493],[-95.90907,17.2386],[-95.90733,17.23609],[-95.90213,17.23713],[-95.89678,17.26081],[-95.89993,17.26801],[-95.89955,17.27297],[-95.90243,17.27239],[-95.90309,17.27377],[-95.90593,17.27174],[-95.91874,17.27487],[-95.9246,17.27252],[-95.93527,17.27954],[-95.93842,17.27647],[-95.94125,17.27846],[-95.93948,17.28231],[-95.94983,17.29124],[-95.96276,17.28691],[-95.96961,17.2866],[-95.97275,17.29418],[-95.96768,17.30186],[-95.97807,17.31292],[-95.98232,17.313],[-95.98656,17.30998],[-95.9964,17.31672],[-95.98948,17.31992]]]}},{"type":"Feature","properties":{"shapeISO":"","shapeID":"50627088B89578297577664","shapeGroup":"MEX","shapeType":"ADM2","name":"Tanetze de Zaragoza"},"geometry":{"type":"Polygon","coordinates":[[[-96.26948,17.38489],[-96.27166,17.39619],[-96.277,17.40257],[-96.28052,17.40232],[-96.28595,17.4093],[-96.28759,17.4121],[-96.29044,17.41328],[-96.29244,17.40711],[-96.31109,17.40756],[-96.31171,17.40292],[-96.31435,17.39857],[-96.31168,17.39557],[-96.31436,17.39508],[-96.31644,17.38636],[-96.31977,17.38492],[-96.32184,17.3819],[-96.31903,17.37628],[-96.31391,17.37263],[-96.31319,17.3682],[-96.30484,17.36216],[-96.28728,17.36264],[-96.28047,17.35738],[-96.27742,17.35278],[-96.27391,17.3604],[-96.27357,17.3698],[-96.27707,17.37368],[-96.27744,17.37675],[-96.2742,17.37987],[-96.27288,17.37846],[-96.27207,17.38299],[-96.26948,17.38489]]]}},{"type":"Feature","properties":{"shapeISO":"","shapeID":"50627088B84578791163006","shapeGroup":"MEX","shapeType":"ADM2","name":"Santo Domingo Xagacía"},"geometry":{"type":"Polygon","coordinates":[[[-96.24938,17.15734],[-96.27267,17.15789],[-96.28124,17.15531],[-96.29133,17.14947],[-96.29401,17.14272],[-96.30073,17.14116],[-96.30413,17.1388],[-96.3118,17.14135],[-96.32349,17.14241],[-96.33778,17.13504],[-96.34593,17.12875],[-96.34548,17.12576],[-96.34696,17.12437],[-96.35601,17.12126],[-96.35651,17.11878],[-96.35999,17.11835],[-96.35481,17.11114],[-96.35398,17.10774],[-96.3508,17.1048],[-96.3448,17.1048],[-96.34042,17.10246],[-96.32586,17.1044],[-96.32361,17.10191],[-96.3176,17.09971],[-96.30789,17.10081],[-96.30358,17.10371],[-96.29432,17.10132],[-96.28566,17.10155],[-96.26851,17.09923],[-96.26534,17.10141],[-96.26164,17.1001],[-96.25774,17.10211],[-96.25316,17.10023],[-96.24886,17.09582],[-96.24736,17.09732],[-96.24579,17.10167],[-96.24881,17.11015],[-96.24786,17.11469],[-96.2449,17.11898],[-96.24865,17.12362],[-96.25041,17.13376],[-96.24511,17.13355],[-96.24155,17.1353],[-96.24014,17.15669],[-96.24772,17.1586],[-96.24938,17.15734]]]}},{"type":"Feature","properties":{"shapeISO":"","shapeID":"50627088B60022812235363","shapeGroup":"MEX","shapeType":"ADM2","name":"Santo Domingo Tepuxtepec"},"geometry":{"type":"Polygon","coordinates":[[[-96.17098,16.96038],[-96.17057,16.9583],[-96.16855,16.95781],[-96.16301,16.9503],[-96.16213,16.94567],[-96.15714,16.94034],[-96.15651,16.93723],[-96.15347,16.93194],[-96.14049,16.92056],[-96.12465,16.91923],[-96.11794,16.91506],[-96.11171,16.90756],[-96.10441,16.90822],[-96.09948,16.90295],[-96.09467,16.90223],[-96.08997,16.89829],[-96.08199,16.8976],[-96.08062,16.8947],[-96.07203,16.88957],[-96.06774,16.89197],[-96.06102,16.88975],[-96.05683,16.89129],[-96.05412,16.8893],[-96.05249,16.88984],[-96.01707,16.87994],[-95.98905,16.88647],[-95.98237,16.89154],[-95.98746,16.89791],[-96.00158,16.90321],[-96.00679,16.90947],[-96.01208,16.91017],[-96.01298,16.91375],[-96.01707,16.91485],[-96.0199,16.91408],[-96.02282,16.91801],[-96.02557,16.91836],[-96.02626,16.92037],[-96.03674,16.92157],[-96.04029,16.92477],[-96.03908,16.93467],[-96.03656,16.93824],[-96.03362,16.93966],[-96.03691,16.94374],[-96.03659,16.94897],[-96.02522,16.94229],[-96.02306,16.95113],[-96.02488,16.95607],[-96.02306,16.96082],[-96.02319,16.96547],[-96.0298,16.96463],[-96.03189,16.96235],[-96.03438,16.96234],[-96.03467,16.96059],[-96.03907,16.96297],[-96.04188,16.96066],[-96.04512,16.96193],[-96.0442,16.97096],[-96.05062,16.96869],[-96.05238,16.97151],[-96.0462,16.98188],[-96.04665,16.98516],[-96.05,16.98738],[-96.05468,16.98575],[-96.05971,16.98576],[-96.06867,16.98833],[-96.07121,16.98633],[-96.07162,16.98758],[-96.07476,16.9867],[-96.07109,16.97946],[-96.07273,16.97564],[-96.07144,16.9734],[-96.08006,16.96759],[-96.0808,16.96102],[-96.08278,16.9578],[-96.08111,16.95241],[-96.08339,16.9499],[-96.09508,16.94891],[-96.0983,16.9509],[-96.10271,16.95006],[-96.1088,16.95346],[-96.10948,16.95621],[-96.10554,16.96049],[-96.10398,16.96875],[-96.10549,16.97201],[-96.11052,16.97213],[-96.11069,16.97362],[-96.10795,16.98011],[-96.10408,16.98286],[-96.11734,16.98568],[-96.12798,16.98236],[-96.1317,16.97451],[-96.14438,16.9669],[-96.15129,16.95957],[-96.15295,16.9608],[-96.15572,16.95901],[-96.15846,16.95928],[-96.16381,16.96241],[-96.16879,16.9596],[-96.17098,16.96038]]]}},{"type":"Feature","properties":{"shapeISO":"","shapeID":"50627088B4336628154898","shapeGroup":"MEX","shapeType":"ADM2","name":"Santo Domingo Roayaga"},"geometry":{"type":"Polygon","coordinates":[[[-96.13071,17.32815],[-96.11551,17.30498],[-96.10501,17.3045],[-96.08801,17.29532],[-96.08055,17.30155],[-96.08524,17.30375],[-96.08139,17.31091],[-96.08224,17.32299],[-96.06962,17.32345],[-96.06775,17.32488],[-96.06701,17.32825],[-96.06476,17.32377],[-96.06495,17.31775],[-96.04675,17.31715],[-96.0436,17.32147],[-96.04235,17.32089],[-96.03856,17.32296],[-96.03508,17.32078],[-96.02906,17.32183],[-96.0215,17.3157],[-96.01073,17.31775],[-96.00476,17.31724],[-96.0,17.31946],[-95.98948,17.31992],[-95.99076,17.32271],[-95.99025,17.32712],[-95.99342,17.33313],[-95.99562,17.33185],[-96.0,17.33416],[-96.0096,17.34187],[-96.02839,17.34205],[-96.0316,17.34724],[-96.03838,17.34369],[-96.07751,17.37092],[-96.07878,17.36258],[-96.08505,17.35279],[-96.12412,17.35063],[-96.13071,17.32815]]]}},{"type":"Feature","properties":{"shapeISO":"","shapeID":"50627088B23410005526234","shapeGroup":"MEX","shapeType":"ADM2","name":"Santo Domingo Albarradas"},"geometry":{"type":"Polygon","coordinates":[[[-96.1886,17.11576],[-96.19233,17.10511],[-96.2021,17.10128],[-96.20473,17.10223],[-96.21612,17.09896],[-96.22534,17.10126],[-96.24084,17.0958],[-96.24736,17.09732],[-96.24886,17.09582],[-96.24201,17.07708],[-96.23678,17.0672],[-96.23363,17.06439],[-96.23083,17.04451],[-96.22802,17.03732],[-96.21065,17.01176],[-96.20775,17.01218],[-96.20736,17.02481],[-96.20903,17.03118],[-96.20577,17.0413],[-96.20083,17.04398],[-96.19783,17.052],[-96.19362,17.05186],[-96.18025,17.06068],[-96.17736,17.06429],[-96.17764,17.07629],[-96.18192,17.09276],[-96.18295,17.10279],[-96.17992,17.10736],[-96.1801,17.10938],[-96.1886,17.11576]]]}},{"type":"Feature","properties":{"shapeISO":"","shapeID":"50627088B50868088212733","shapeGroup":"MEX","shapeType":"ADM2","name":"Santiago Zoochila"},"geometry":{"type":"Polygon","coordinates":[[[-96.2393,17.19657],[-96.24118,17.19997],[-96.238,17.2252],[-96.25082,17.22606],[-96.24896,17.23227],[-96.25336,17.23665],[-96.25757,17.23629],[-96.26607,17.227],[-96.26832,17.22336],[-96.26474,17.21652],[-96.25676,17.20949],[-96.25468,17.20009],[-96.25198,17.19821],[-96.24811,17.20244],[-96.2459,17.19491],[-96.2393,17.19657]]]}},{"type":"Feature","properties":{"shapeISO":"","shapeID":"50627088B38006544151025","shapeGroup":"MEX","shapeType":"ADM2","name":"Santiago Zacatepec"},"geometry":{"type":"Polygon","coordinates":[[[-95.98059,17.1887],[-95.97917,17.17796],[-95.97549,17.16889],[-95.96819,17.15819],[-95.96422,17.14671],[-95.96272,17.13717],[-95.94056,17.13764],[-95.92681,17.13944],[-95.92556,17.13682],[-95.90945,17.12443],[-95.89437,17.13195],[-95.878,17.12995],[-95.87587,17.13211],[-95.85133,17.12816],[-95.82785,17.1371],[-95.81886,17.14363],[-95.82015,17.15953],[-95.81561,17.17353],[-95.81127,17.18654],[-95.82378,17.18547],[-95.82511,17.1889],[-95.8421,17.20415],[-95.83302,17.20356],[-95.81979,17.20798],[-95.7968,17.20434],[-95.79072,17.2149],[-95.77979,17.21912],[-95.78313,17.21858],[-95.79084,17.22197],[-95.80575,17.23503],[-95.82452,17.25625],[-95.83735,17.25957],[-95.84855,17.26368],[-95.85475,17.26028],[-95.87585,17.27342],[-95.8771,17.27837],[-95.88143,17.28194],[-95.88796,17.2788],[-95.89609,17.27914],[-95.89955,17.27297],[-95.89993,17.26801],[-95.89678,17.26081],[-95.90213,17.23713],[-95.90733,17.23609],[-95.90907,17.2386],[-95.91588,17.23493],[-95.92572,17.23869],[-95.92972,17.23324],[-95.93125,17.23587],[-95.93486,17.23575],[-95.94338,17.22554],[-95.9503,17.22003],[-95.95737,17.21727],[-95.95963,17.21047],[-95.96515,17.20207],[-95.96515,17.19852],[-95.97049,17.19356],[-95.98059,17.1887]]]}},{"type":"Feature","properties":{"shapeISO":"","shapeID":"50627088B77723343468711","shapeGroup":"MEX","shapeType":"ADM2","name":"Santiago Laxopa"},"geometry":{"type":"Polygon","coordinates":[[[-96.25468,17.20009],[-96.25676,17.20949],[-96.26474,17.21652],[-96.26832,17.22336],[-96.26607,17.227],[-96.28023,17.23062],[-96.28703,17.24033],[-96.28679,17.2427],[-96.29823,17.25016],[-96.30578,17.25183],[-96.30655,17.25479],[-96.3138,17.25569],[-96.31933,17.26742],[-96.32424,17.27094],[-96.33107,17.27408],[-96.34092,17.27521],[-96.34679,17.2741],[-96.34921,17.27156],[-96.3571,17.26507],[-96.35873,17.24264],[-96.36179,17.2309],[-96.37222,17.21201],[-96.36967,17.19479],[-96.36706,17.18795],[-96.36899,17.18043],[-96.36726,17.17255],[-96.37012,17.16131],[-96.37961,17.15499],[-96.36045,17.13348],[-96.35601,17.12126],[-96.34696,17.12437],[-96.34548,17.12576],[-96.34593,17.12875],[-96.33778,17.13504],[-96.32349,17.14241],[-96.3118,17.14135],[-96.30413,17.1388],[-96.30073,17.14116],[-96.29401,17.14272],[-96.29133,17.14947],[-96.28124,17.15531],[-96.27267,17.15789],[-96.27424,17.16517],[-96.28069,17.16571],[-96.2835,17.16428],[-96.28782,17.16478],[-96.29293,17.16789],[-96.29482,17.16678],[-96.29944,17.16926],[-96.30135,17.16821],[-96.30405,17.1716],[-96.30721,17.17209],[-96.3155,17.17863],[-96.33073,17.17146],[-96.33375,17.17275],[-96.33936,17.16707],[-96.34106,17.16759],[-96.33897,17.17466],[-96.34058,17.17868],[-96.31403,17.20396],[-96.30943,17.20412],[-96.30936,17.20043],[-96.30661,17.19774],[-96.29318,17.1931],[-96.27182,17.19264],[-96.26379,17.19469],[-96.26227,17.19684],[-96.25468,17.20009]]]}},{"type":"Feature","properties":{"shapeISO":"","shapeID":"50627088B8129792994601","shapeGroup":"MEX","shapeType":"ADM2","name":"Santiago Lalopa"},"geometry":{"type":"Polygon","coordinates":[[[-96.26948,17.38489],[-96.26388,17.38556],[-96.26094,17.38348],[-96.25451,17.38357],[-96.25313,17.38532],[-96.24423,17.38703],[-96.24444,17.38989],[-96.23625,17.40421],[-96.22161,17.42236],[-96.2186,17.42371],[-96.22584,17.43024],[-96.22944,17.43911],[-96.2333,17.44182],[-96.2349,17.4461],[-96.23783,17.44475],[-96.23988,17.44844],[-96.24251,17.4482],[-96.24709,17.44348],[-96.25176,17.44233],[-96.2571,17.43616],[-96.25763,17.43286],[-96.26067,17.43004],[-96.2607,17.42744],[-96.26418,17.42735],[-96.26899,17.4224],[-96.26992,17.41986],[-96.26872,17.41693],[-96.27049,17.41457],[-96.28595,17.4093],[-96.28052,17.40232],[-96.277,17.40257],[-96.27166,17.39619],[-96.26948,17.38489]]]}},{"type":"Feature","properties":{"shapeISO":"","shapeID":"50627088B29735137627697","shapeGroup":"MEX","shapeType":"ADM2","name":"Santiago Atitlán"},"geometry":{"type":"Polygon","coordinates":[[[-95.9608,17.08298],[-95.95675,17.08186],[-95.95294,17.0843],[-95.94906,17.08345],[-95.94701,17.08652],[-95.94155,17.08815],[-95.93252,17.07939],[-95.91306,17.06809],[-95.91086,17.06539],[-95.90199,17.06319],[-95.89373,17.05513],[-95.89324,17.05129],[-95.89099,17.049],[-95.88844,17.04894],[-95.88627,17.04523],[-95.88156,17.04301],[-95.87054,17.03982],[-95.8709,17.04646],[-95.86618,17.06318],[-95.88118,17.10627],[-95.866,17.11303],[-95.87424,17.11231],[-95.88965,17.1164],[-95.89276,17.10845],[-95.89641,17.10839],[-95.90093,17.11417],[-95.90474,17.11507],[-95.90752,17.11887],[-95.91076,17.12014],[-95.90945,17.12443],[-95.92556,17.13682],[-95.92681,17.13944],[-95.94056,17.13764],[-95.96272,17.13717],[-95.96297,17.13399],[-95.97876,17.12912],[-95.97014,17.1243],[-95.96874,17.11958],[-95.96404,17.11381],[-95.96406,17.10861],[-95.96781,17.10439],[-95.96981,17.10677],[-95.97783,17.1098],[-95.98215,17.10723],[-95.99442,17.10493],[-95.98846,17.09864],[-95.98479,17.09804],[-95.97983,17.09371],[-95.9777,17.08711],[-95.97179,17.08397],[-95.97083,17.08117],[-95.96804,17.0805],[-95.9608,17.08298]]]}},{"type":"Feature","properties":{"shapeISO":"","shapeID":"50627088B95350580088580","shapeGroup":"MEX","shapeType":"ADM2","name":"Santa María Yalina"},"geometry":{"type":"Polygon","coordinates":[[[-96.25336,17.23665],[-96.26179,17.24719],[-96.25193,17.25792],[-96.25086,17.26117],[-96.25558,17.26235],[-96.25629,17.26444],[-96.25795,17.26471],[-96.25811,17.2699],[-96.26005,17.27092],[-96.25997,17.27552],[-96.26237,17.27886],[-96.26101,17.28085],[-96.26687,17.28529],[-96.26926,17.29118],[-96.27175,17.29134],[-96.27088,17.29256],[-96.27196,17.29306],[-96.28165,17.29696],[-96.34025,17.301],[-96.35365,17.29196],[-96.34921,17.27156],[-96.34679,17.2741],[-96.34092,17.27521],[-96.33107,17.27408],[-96.32424,17.27094],[-96.31933,17.26742],[-96.3138,17.25569],[-96.30655,17.25479],[-96.30578,17.25183],[-96.29823,17.25016],[-96.28679,17.2427],[-96.28703,17.24033],[-96.28023,17.23062],[-96.26607,17.227],[-96.25757,17.23629],[-96.25336,17.23665]]]}},{"type":"Feature","properties":{"shapeISO":"","shapeID":"50627088B87126124877298","shapeGroup":"MEX","shapeType":"ADM2","name":"Santa María Tlahuitoltepec"},"geometry":{"type":"Polygon","coordinates":[[[-96.1206,17.06455],[-96.1136,17.06445],[-96.11488,17.07572],[-96.10963,17.07508],[-96.10518,17.07798],[-96.09592,17.07636],[-96.09662,17.07023],[-96.09163,17.0673],[-96.08719,17.07379],[-96.08475,17.07189],[-96.08328,17.06707],[-96.08118,17.07154],[-96.07517,17.07341],[-96.06943,17.07056],[-96.06729,17.07094],[-96.06715,17.0696],[-96.06125,17.07079],[-96.06018,17.06873],[-96.05547,17.06996],[-96.05474,17.06857],[-96.05099,17.06826],[-96.04995,17.06986],[-96.04669,17.07037],[-96.0383,17.06789],[-96.03821,17.06567],[-96.03468,17.06363],[-96.03105,17.06467],[-96.02804,17.06804],[-96.01608,17.06807],[-96.01493,17.06656],[-96.01359,17.06668],[-96.01359,17.06835],[-96.00879,17.06664],[-96.00886,17.07187],[-96.00344,17.07777],[-96.00411,17.09653],[-95.99442,17.10493],[-95.98215,17.10723],[-95.97783,17.1098],[-95.96981,17.10677],[-95.96781,17.10439],[-95.96406,17.10861],[-95.96404,17.11381],[-95.96874,17.11958],[-95.97014,17.1243],[-95.97876,17.12912],[-95.96297,17.13399],[-95.96272,17.13717],[-95.96422,17.14671],[-95.96819,17.15819],[-95.97549,17.16889],[-95.97917,17.17796],[-95.98059,17.1887],[-95.99789,17.17402],[-96.01082,17.14375],[-96.03871,17.16526],[-96.05655,17.16106],[-96.06217,17.16497],[-96.0711,17.15535],[-96.07527,17.15315],[-96.07412,17.15167],[-96.07728,17.14531],[-96.07673,17.13959],[-96.07112,17.1316],[-96.07461,17.1304],[-96.07691,17.13129],[-96.08001,17.12948],[-96.07998,17.12819],[-96.08325,17.12857],[-96.08423,17.12566],[-96.09057,17.12163],[-96.09192,17.11926],[-96.09494,17.12058],[-96.09937,17.11918],[-96.10608,17.12131],[-96.11285,17.11916],[-96.11569,17.11997],[-96.11837,17.12342],[-96.12582,17.12038],[-96.12592,17.1217],[-96.13598,17.12454],[-96.14528,17.12469],[-96.15206,17.12306],[-96.15596,17.12547],[-96.15994,17.12303],[-96.15828,17.11837],[-96.15884,17.11192],[-96.16425,17.10959],[-96.1672,17.10612],[-96.16884,17.09841],[-96.16437,17.09644],[-96.16245,17.08997],[-96.15948,17.08848],[-96.1584,17.08528],[-96.15536,17.0832],[-96.15333,17.08464],[-96.14918,17.08231],[-96.13337,17.0843],[-96.1311,17.08286],[-96.12883,17.07888],[-96.12918,17.07311],[-96.1252,17.07101],[-96.12359,17.0671],[-96.1206,17.06455]]]}},{"type":"Feature","properties":{"shapeISO":"","shapeID":"50627088B72536990045476","shapeGroup":"MEX","shapeType":"ADM2","name":"Santa María Tepantlali"},"geometry":{"type":"Polygon","coordinates":[[[-96.02319,16.96547],[-96.02306,16.96082],[-96.02488,16.95607],[-96.02306,16.95113],[-96.02522,16.94229],[-96.03659,16.94897],[-96.03691,16.94374],[-96.03362,16.93966],[-96.03656,16.93824],[-96.03908,16.93467],[-96.04029,16.92477],[-96.03674,16.92157],[-96.02626,16.92037],[-96.02557,16.91836],[-96.02282,16.91801],[-96.0199,16.91408],[-96.01707,16.91485],[-96.01298,16.91375],[-96.01208,16.91017],[-96.00679,16.90947],[-96.00158,16.90321],[-95.98746,16.89791],[-95.98237,16.89154],[-95.9758,16.88599],[-95.97161,16.87927],[-95.96902,16.87795],[-95.96721,16.87895],[-95.9644,16.87681],[-95.96858,16.88852],[-95.96699,16.89551],[-95.971,16.901],[-95.97029,16.90677],[-95.96546,16.91683],[-95.95752,16.92382],[-95.95786,16.92791],[-95.95302,16.9344],[-95.953,16.94662],[-95.94517,16.99502],[-95.9523,16.9914],[-95.95571,16.99278],[-95.95878,16.99198],[-95.96943,16.99851],[-95.97343,16.99917],[-95.97212,17.004],[-95.97454,17.00393],[-95.97766,17.00692],[-95.97895,17.00682],[-95.97928,17.00462],[-95.98168,17.00558],[-95.98029,17.00126],[-95.98231,16.99806],[-95.98502,16.99962],[-95.98774,17.00411],[-95.99202,17.0043],[-95.998,17.00833],[-96.00243,17.00664],[-96.01107,17.00675],[-96.01537,17.00411],[-96.02222,16.99277],[-96.02161,16.98774],[-96.02021,16.98689],[-96.02139,16.98582],[-96.0192,16.98318],[-96.0178,16.98342],[-96.01838,16.97871],[-96.01368,16.97421],[-96.01055,16.96665],[-96.0132,16.96596],[-96.01511,16.96307],[-96.02319,16.96547]]]}},{"type":"Feature","properties":{"shapeISO":"","shapeID":"50627088B67210790477336","shapeGroup":"MEX","shapeType":"ADM2","name":"Santa María Temaxcalapa"},"geometry":{"type":"Polygon","coordinates":[[[-96.15651,17.36055],[-96.15031,17.35838],[-96.15227,17.35571],[-96.15217,17.35304],[-96.14592,17.35921],[-96.1425,17.35922],[-96.14118,17.36149],[-96.14279,17.36449],[-96.14062,17.36413],[-96.13582,17.37125],[-96.13587,17.37328],[-96.14162,17.37339],[-96.14332,17.37758],[-96.14509,17.38539],[-96.1414,17.39433],[-96.14352,17.39821],[-96.14599,17.39857],[-96.14863,17.40023],[-96.15998,17.39997],[-96.16036,17.3955],[-96.159,17.39462],[-96.16058,17.3914],[-96.18003,17.38329],[-96.1909,17.38546],[-96.18337,17.37461],[-96.17598,17.36865],[-96.17031,17.37257],[-96.15652,17.36607],[-96.15651,17.36055]]]}}]}