{"type":"FeatureCollection","features":[{"type":"Feature","properties":{"shapeISO":"","shapeID":"52423323B36780146179485","shapeGroup":"USA","shapeType":"ADM2","name":"Mohave"},"geometry":{"type":"Polygon","coordinates":[[[-114.05063,36.84315],[-114.05057,36.65626],[-114.04849,36.49999],[-114.04584,36.44298],[-114.04695,36.31545],[-114.04853,36.2896],[-114.04685,36.19407],[-114.06031,36.18937],[-114.06804,36.18067],[-114.08897,36.14439],[-114.09988,36.12166],[-114.10323,36.12018],[-114.11102,36.11988],[-114.12087,36.1146],[-114.12316,36.11158],[-114.12323,36.10475],[-114.11747,36.1009],[-114.11418,36.09699],[-114.11454,36.09522],[-114.13691,36.05947],[-114.13821,36.04129],[-114.1482,36.02802],[-114.15414,36.02387],[-114.16648,36.02774],[-114.17684,36.02766],[-114.19239,36.021],[-114.2137,36.01562],[-114.23881,36.01457],[-114.25266,36.0202],[-114.26673,36.02924],[-114.28021,36.04637],[-114.31557,36.0595],[-114.31612,36.06311],[-114.31422,36.06662],[-114.30789,36.0713],[-114.30575,36.07489],[-114.30844,36.08245],[-114.32879,36.10551],[-114.33728,36.10803],[-114.36312,36.13025],[-114.37212,36.14312],[-114.40549,36.14738],[-114.41696,36.14577],[-114.42718,36.13631],[-114.44662,36.12598],[-114.45334,36.13073],[-114.45838,36.13859],[-114.46365,36.1397],[-114.47016,36.13881],[-114.48705,36.1294],[-114.49613,36.12786],[-114.50218,36.1288],[-114.50578,36.13145],[-114.50464,36.14563],[-114.51173,36.15096],[-114.5458,36.15225],[-114.57204,36.15162],[-114.59722,36.14211],[-114.60828,36.13395],[-114.61671,36.13011],[-114.62189,36.13214],[-114.62787,36.14102],[-114.63173,36.14231],[-114.65996,36.12415],[-114.66655,36.11735],[-114.70978,36.10775],[-114.73618,36.10437],[-114.74709,36.09701],[-114.75563,36.08717],[-114.75411,36.07945],[-114.74335,36.07054],[-114.73626,36.05848],[-114.73675,36.05435],[-114.74039,36.04926],[-114.74063,36.04102],[-114.73942,36.03787],[-114.73433,36.03569],[-114.73045,36.03132],[-114.72972,36.02817],[-114.73117,36.02187],[-114.74279,36.00997],[-114.74377,35.9851],[-114.74061,35.97566],[-114.72995,35.96219],[-114.72833,35.9563],[-114.73117,35.94392],[-114.72937,35.94142],[-114.7157,35.93471],[-114.70754,35.92807],[-114.70853,35.91232],[-114.70028,35.90178],[-114.66721,35.87479],[-114.6697,35.86509],[-114.68202,35.86329],[-114.69778,35.85485],[-114.69986,35.84329],[-114.69572,35.83061],[-114.70372,35.81459],[-114.70992,35.81019],[-114.71212,35.80619],[-114.69892,35.79019],[-114.70142,35.76909],[-114.69572,35.75599],[-114.69732,35.73369],[-114.70542,35.70829],[-114.70122,35.70119],[-114.69412,35.69519],[-114.68322,35.68939],[-114.68062,35.68549],[-114.68222,35.67819],[-114.69002,35.66469],[-114.68942,35.65142],[-114.67712,35.64149],[-114.65822,35.61909],[-114.65342,35.61079],[-114.65432,35.5976],[-114.6662,35.57758],[-114.66302,35.5637],[-114.66202,35.5455],[-114.65692,35.5344],[-114.65802,35.5305],[-114.66312,35.5245],[-114.67382,35.5179],[-114.67722,35.5135],[-114.67922,35.5],[-114.67765,35.48975],[-114.66639,35.46686],[-114.66451,35.4495],[-114.66214,35.44425],[-114.65202,35.42917],[-114.62715,35.40951],[-114.60433,35.35359],[-114.59594,35.32524],[-114.59751,35.29696],[-114.58714,35.26238],[-114.57997,35.20965],[-114.57485,35.2059],[-114.57213,35.2006],[-114.56925,35.18349],[-114.56958,35.16306],[-114.57276,35.13873],[-114.57854,35.12876],[-114.58775,35.12373],[-114.59913,35.12106],[-114.61992,35.12164],[-114.62995,35.11828],[-114.64436,35.10591],[-114.64677,35.10188],[-114.64284,35.09651],[-114.62253,35.08871],[-114.61314,35.0831],[-114.60475,35.07484],[-114.60292,35.06859],[-114.60671,35.05895],[-114.62714,35.04473],[-114.6369,35.02837],[-114.63803,35.02056],[-114.63669,35.00881],[-114.6335,35.00186],[-114.62994,34.99475],[-114.62903,34.98615],[-114.63525,34.96515],[-114.63496,34.95892],[-114.62978,34.94305],[-114.63326,34.92461],[-114.63089,34.90727],[-114.63674,34.88911],[-114.63439,34.8729],[-114.63069,34.86636],[-114.62395,34.85974],[-114.60066,34.84737],[-114.58685,34.83568],[-114.57646,34.81531],[-114.57102,34.7943],[-114.55866,34.77386],[-114.55269,34.76688],[-114.52963,34.75083],[-114.51663,34.73675],[-114.49587,34.72796],[-114.49098,34.72485],[-114.48678,34.71911],[-114.48197,34.71604],[-114.47369,34.71397],[-114.47049,34.71137],[-114.46526,34.69121],[-114.45658,34.67796],[-114.45198,34.6668],[-114.45176,34.65433],[-114.44148,34.64254],[-114.44031,34.63825],[-114.44141,34.63018],[-114.43875,34.62146],[-114.42421,34.61046],[-114.42434,34.60234],[-114.4301,34.59688],[-114.42976,34.59174],[-114.42239,34.58072],[-114.40524,34.56964],[-114.38085,34.52973],[-114.37814,34.50729],[-114.38237,34.49576],[-114.38171,34.47605],[-114.3872,34.46203],[-114.38671,34.45792],[-114.37373,34.44694],[-114.34263,34.45145],[-114.33538,34.45004],[-114.33068,34.4453],[-114.32614,34.43726],[-114.31226,34.43273],[-114.30103,34.42681],[-114.29485,34.42139],[-114.29224,34.41761],[-114.29176,34.41111],[-114.28867,34.40663],[-114.28012,34.40315],[-114.26433,34.40133],[-114.25275,34.39011],[-114.23429,34.37667],[-114.2297,34.36891],[-114.22612,34.36592],[-114.21379,34.36247],[-114.19949,34.36138],[-114.17692,34.34931],[-114.16882,34.33952],[-114.15722,34.31787],[-114.13829,34.30324],[-114.13425,34.30418],[-114.11437,34.29539],[-114.10192,34.29873],[-114.08657,34.29785],[-114.07899,34.29207],[-114.07336,34.29185],[-114.06681,34.28858],[-114.05706,34.27918],[-114.05243,34.27774],[-114.04645,34.26957],[-114.03727,34.26317],[-114.03524,34.25983],[-114.03198,34.25954],[-114.02886,34.26166],[-114.02422,34.26815],[-114.01998,34.26598],[-114.01154,34.25607],[-114.00312,34.2537],[-113.96839,34.25793],[-113.95081,34.25715],[-113.92666,34.24935],[-113.90235,34.2485],[-113.89336,34.24926],[-113.8754,34.25449],[-113.85892,34.25351],[-113.85293,34.25199],[-113.84031,34.22765],[-113.83683,34.22381],[-113.83283,34.22353],[-113.82054,34.22804],[-113.81738,34.23485],[-113.8126,34.2325],[-113.80081,34.23622],[-113.79189,34.23527],[-113.7772,34.22889],[-113.75755,34.23659],[-113.73806,34.24056],[-113.72761,34.2346],[-113.72297,34.22335],[-113.71559,34.22176],[-113.71359,34.21746],[-113.70906,34.21597],[-113.70263,34.2102],[-113.68019,34.21003],[-113.67551,34.2129],[-113.66611,34.21355],[-113.66374,34.21231],[-113.65834,34.21761],[-113.65505,34.21661],[-113.6491,34.22172],[-113.64516,34.22128],[-113.64445,34.2258],[-113.64169,34.22762],[-113.63923,34.22339],[-113.63313,34.22495],[-113.62752,34.22872],[-113.61667,34.22767],[-113.60802,34.23162],[-113.60506,34.22953],[-113.58673,34.24345],[-113.58279,34.25866],[-113.5705,34.26868],[-113.56862,34.27471],[-113.55244,34.28841],[-113.53954,34.30638],[-113.53029,34.31027],[-113.52228,34.30899],[-113.5181,34.31055],[-113.51151,34.30507],[-113.50076,34.30282],[-113.47937,34.30397],[-113.47152,34.30184],[-113.46151,34.30244],[-113.45167,34.29995],[-113.43195,34.30093],[-113.42063,34.29914],[-113.41248,34.29448],[-113.40765,34.2963],[-113.3921,34.29798],[-113.3616,34.2943],[-113.34585,34.30867],[-113.3426,34.31453],[-113.33352,34.31788],[-113.33353,34.74832],[-113.33417,35.52804],[-113.33404,35.80304],[-113.33178,35.81619],[-113.33311,35.82043],[-113.32581,35.83014],[-113.32708,35.83787],[-113.32166,35.84824],[-113.31111,35.86178],[-113.31226,35.86988],[-113.30991,35.8835],[-113.31642,35.89559],[-113.32262,35.89857],[-113.32823,35.90811],[-113.33443,35.91314],[-113.33415,35.91872],[-113.33014,35.924],[-113.32537,35.93785],[-113.3287,35.94903],[-113.32396,35.95597],[-113.31721,35.96154],[-113.31868,35.96693],[-113.31732,35.96846],[-113.32151,35.97567],[-113.33509,35.98008],[-113.33979,35.98516],[-113.34139,35.99134],[-113.34004,35.99938],[-113.34309,36.00878],[-113.35019,36.02138],[-113.35152,36.03326],[-113.35035,36.05047],[-113.34745,36.05504],[-113.33198,36.0672],[-113.32618,36.07843],[-113.32317,36.09163],[-113.30884,36.09956],[-113.29641,36.09582],[-113.27926,36.09734],[-113.25878,36.08933],[-113.24262,36.09271],[-113.23292,36.08995],[-113.2229,36.09298],[-113.21671,36.10499],[-113.21273,36.11025],[-113.20539,36.1152],[-113.20204,36.12121],[-113.20529,36.13314],[-113.20029,36.15046],[-113.17651,36.16069],[-113.16772,36.16593],[-113.1657,36.16976],[-113.15737,36.17413],[-113.14564,36.17283],[-113.13772,36.16659],[-113.12581,36.17052],[-113.11974,36.17561],[-113.11536,36.18219],[-113.1068,36.18712],[-113.07267,36.20288],[-113.05336,36.20908],[-113.03642,36.22808],[-113.01912,36.23671],[-113.01283,36.23848],[-113.0058,36.23851],[-112.98797,36.23238],[-112.98122,36.23177],[-112.93938,36.2416],[-112.93201,36.24443],[-112.92438,36.25709],[-112.91609,36.2582],[-112.90495,36.25438],[-112.89723,36.25544],[-112.88284,36.26548],[-112.87604,36.27834],[-112.86643,36.28251],[-112.85166,36.27846],[-112.84088,36.27725],[-112.83251,36.28495],[-112.82687,36.28783],[-112.81,36.28788],[-112.79635,36.28385],[-112.7891,36.29093],[-112.78914,36.29748],[-112.78684,36.30147],[-112.77173,36.30311],[-112.76353,36.30805],[-112.75872,36.32073],[-112.75076,36.32545],[-112.73181,36.31777],[-112.72015,36.32402],[-112.72622,36.33964],[-112.7191,36.34803],[-112.70191,36.35415],[-112.69159,36.35481],[-112.68714,36.34809],[-112.67948,36.34195],[-112.67354,36.34405],[-112.66241,36.35188],[-112.65259,36.36286],[-112.64993,36.37196],[-112.63439,36.39077],[-112.63158,36.39135],[-112.63148,36.39975],[-112.62991,36.40305],[-112.62514,36.40671],[-112.62411,36.41025],[-112.62569,36.41235],[-112.62443,36.41375],[-112.6308,36.42399],[-112.6293,36.42595],[-112.63206,36.42752],[-112.63689,36.42573],[-112.6388,36.42712],[-112.64062,36.43269],[-112.64432,36.43551],[-112.64422,36.43821],[-112.64681,36.43944],[-112.64401,36.44086],[-112.64149,36.43936],[-112.63739,36.44235],[-112.64242,36.4462],[-112.64524,36.44615],[-112.64543,36.448],[-112.64188,36.44855],[-112.64223,36.4549],[-112.64479,36.45795],[-112.63554,36.46375],[-112.63292,36.4627],[-112.62969,36.46438],[-112.63051,36.47106],[-112.62464,36.47365],[-112.62563,36.48051],[-112.6229,36.48176],[-112.6221,36.48417],[-112.62447,36.48388],[-112.6297,36.48649],[-112.63615,36.48601],[-112.63857,36.48783],[-112.63839,36.49058],[-112.63611,36.49082],[-112.63663,36.49448],[-112.64551,36.49666],[-112.6417,36.50065],[-112.64687,36.50288],[-112.6448,36.50658],[-112.64583,36.50876],[-112.64804,36.51043],[-112.65217,36.51049],[-112.65551,36.51389],[-112.65282,36.51789],[-112.65544,36.52109],[-112.65452,36.52892],[-112.65913,36.52958],[-112.65952,36.53221],[-112.6566,36.53804],[-112.66041,36.53942],[-112.65773,36.54316],[-112.65345,36.54369],[-112.65059,36.55029],[-112.65156,36.55237],[-112.65506,36.55295],[-112.65489,36.55517],[-112.64903,36.55992],[-112.64828,36.56341],[-112.64209,36.56554],[-112.64349,36.57141],[-112.63501,36.57002],[-112.63228,36.57126],[-112.63524,36.57626],[-112.63283,36.57743],[-112.62958,36.57645],[-112.62875,36.5817],[-112.62663,36.58138],[-112.62866,36.58844],[-112.62434,36.59076],[-112.62555,36.59399],[-112.62129,36.59644],[-112.62309,36.59858],[-112.61996,36.60312],[-112.62174,36.60803],[-112.61907,36.61168],[-112.61982,36.6145],[-112.62341,36.61749],[-112.62375,36.62749],[-112.62708,36.63038],[-112.62533,36.6337],[-112.62892,36.64421],[-112.62764,36.64896],[-112.62994,36.65002],[-112.62811,36.65358],[-112.63339,36.66],[-112.6346,36.67097],[-112.63786,36.67385],[-112.63668,36.67736],[-112.63337,36.6789],[-112.63505,36.68521],[-112.6292,36.69197],[-112.63044,36.69608],[-112.62873,36.69856],[-112.62939,36.70306],[-112.63105,36.70432],[-112.62424,36.71032],[-112.62765,36.71435],[-112.6232,36.71938],[-112.61857,36.72053],[-112.62229,36.72507],[-112.62057,36.72892],[-112.61728,36.72916],[-112.61683,36.72779],[-112.61598,36.72864],[-112.62215,36.73665],[-112.61946,36.7382],[-112.61637,36.73615],[-112.61236,36.73763],[-112.61796,36.74254],[-112.6128,36.74423],[-112.61649,36.75397],[-112.61378,36.75396],[-112.613,36.75244],[-112.61051,36.75392],[-112.61049,36.75634],[-112.61502,36.75744],[-112.62065,36.76866],[-112.61223,36.77531],[-112.61684,36.77637],[-112.61926,36.78344],[-112.61388,36.78813],[-112.6121,36.79526],[-112.61406,36.79627],[-112.61339,36.79831],[-112.60921,36.79914],[-112.60872,36.80142],[-112.60558,36.79961],[-112.60412,36.80098],[-112.60561,36.80808],[-112.59843,36.80839],[-112.60102,36.81635],[-112.59961,36.82418],[-112.59661,36.82653],[-112.59763,36.83006],[-112.60039,36.83193],[-112.59364,36.8323],[-112.58478,36.84746],[-112.58716,36.85713],[-112.57311,36.87286],[-112.57152,36.89265],[-112.54652,36.91644],[-112.54497,36.93876],[-112.52931,36.95244],[-112.53098,36.96719],[-112.54377,36.98266],[-112.53859,37.00068],[-112.8992,37.00033],[-113.4949,37.0001],[-114.05061,37.0004],[-114.05063,36.84315]]]}},{"type":"Feature","properties":{"shapeISO":"","shapeID":"52423323B41781381522782","shapeGroup":"USA","shapeType":"ADM2","name":"La Paz"},"geometry":{"type":"Polygon","coordinates":[[[-114.13829,34.30324],[-114.13955,34.29585],[-114.13444,34.26639],[-114.1362,34.2613],[-114.13907,34.25954],[-114.15971,34.25825],[-114.16184,34.25704],[-114.16655,34.24965],[-114.17313,34.24723],[-114.17806,34.23997],[-114.19089,34.23086],[-114.21177,34.21154],[-114.22521,34.20365],[-114.22495,34.1939],[-114.22705,34.18887],[-114.24072,34.18324],[-114.25415,34.17384],[-114.26828,34.17022],[-114.27528,34.17216],[-114.28731,34.17053],[-114.29282,34.16673],[-114.31222,34.14478],[-114.32079,34.13864],[-114.33612,34.13404],[-114.34806,34.13446],[-114.35304,34.13313],[-114.36041,34.12358],[-114.36653,34.11858],[-114.37925,34.11599],[-114.39058,34.11009],[-114.40136,34.11166],[-114.41169,34.11004],[-114.42051,34.10347],[-114.42804,34.09279],[-114.43339,34.08842],[-114.43544,34.07973],[-114.43935,34.0579],[-114.43496,34.03779],[-114.43828,34.02261],[-114.44383,34.01618],[-114.45022,34.01258],[-114.46118,34.01009],[-114.46314,34.00662],[-114.46043,33.99922],[-114.46118,33.99469],[-114.46794,33.99288],[-114.47115,33.98805],[-114.48147,33.98127],[-114.4848,33.97552],[-114.49989,33.96179],[-114.50958,33.95727],[-114.51587,33.95811],[-114.52201,33.95563],[-114.52869,33.94782],[-114.53549,33.93466],[-114.53369,33.92608],[-114.51845,33.91752],[-114.51152,33.9111],[-114.50793,33.90381],[-114.50872,33.90065],[-114.51633,33.8962],[-114.51894,33.89172],[-114.51651,33.88593],[-114.50435,33.87689],[-114.50303,33.868],[-114.50565,33.86428],[-114.51468,33.85864],[-114.52454,33.85848],[-114.52846,33.85493],[-114.52961,33.84807],[-114.51998,33.82539],[-114.52273,33.81898],[-114.52806,33.81497],[-114.52011,33.79948],[-114.50487,33.76047],[-114.50449,33.751],[-114.51236,33.73422],[-114.50419,33.72806],[-114.5008,33.72221],[-114.49658,33.71916],[-114.49421,33.70793],[-114.4965,33.69691],[-114.52397,33.68588],[-114.53036,33.67925],[-114.53153,33.67511],[-114.52972,33.66804],[-114.52521,33.66159],[-114.52521,33.6581],[-114.53026,33.65015],[-114.52696,33.63754],[-114.52967,33.6228],[-114.52463,33.61427],[-114.52482,33.61136],[-114.54063,33.59142],[-114.54031,33.58062],[-114.53598,33.56916],[-114.52685,33.55747],[-114.52461,33.55224],[-114.55891,33.53182],[-114.56097,33.51674],[-114.56954,33.50922],[-114.58048,33.50647],[-114.59157,33.49945],[-114.60171,33.4814],[-114.61248,33.47077],[-114.62293,33.45657],[-114.62229,33.44756],[-114.62714,33.43356],[-114.62965,33.42814],[-114.63519,33.42273],[-114.64955,33.41364],[-114.65839,33.41304],[-114.67391,33.4183],[-114.68796,33.41795],[-114.69567,33.41513],[-114.69772,33.41095],[-114.70174,33.40839],[-114.72008,33.4079],[-114.72384,33.40654],[-114.72555,33.40406],[-114.72288,33.39878],[-114.70732,33.38255],[-114.70736,33.37663],[-114.69906,33.36115],[-114.69805,33.35245],[-114.70095,33.33702],[-114.70797,33.32343],[-114.72363,33.31211],[-114.73123,33.30244],[-114.72168,33.28699],[-114.69446,33.27979],[-114.68052,33.27358],[-114.67704,33.27017],[-114.6721,33.2585],[-114.6745,33.2556],[-114.68955,33.24643],[-114.67364,33.22313],[-114.67876,33.20345],[-114.67537,33.18549],[-114.68026,33.16972],[-114.67937,33.15952],[-114.68709,33.1422],[-114.69684,33.13121],[-114.70619,33.10534],[-114.70783,33.09111],[-114.70474,33.08706],[-114.69464,33.08623],[-114.68903,33.08404],[-114.68913,33.07613],[-114.687,33.07097],[-114.67431,33.05718],[-114.67512,33.04754],[-114.67367,33.0419],[-114.67081,33.03799],[-114.66233,33.03268],[-114.65784,33.03383],[-114.64901,33.04677],[-114.64599,33.04891],[-114.63956,33.0453],[-114.6283,33.03106],[-114.6188,33.02721],[-114.60103,33.02541],[-114.58979,33.02623],[-114.58478,33.02824],[-114.5783,33.03538],[-114.57166,33.03663],[-114.53847,33.03343],[-114.52359,33.03097],[-114.5165,33.02758],[-114.37114,33.02752],[-114.33916,33.03],[-114.26876,33.02982],[-114.26783,33.46358],[-113.95805,33.46466],[-113.95806,33.37758],[-113.33393,33.37743],[-113.33376,33.99923],[-113.33352,34.31788],[-113.3426,34.31453],[-113.34585,34.30867],[-113.3616,34.2943],[-113.3921,34.29798],[-113.40765,34.2963],[-113.41248,34.29448],[-113.42063,34.29914],[-113.43195,34.30093],[-113.45167,34.29995],[-113.46151,34.30244],[-113.47152,34.30184],[-113.47937,34.30397],[-113.50076,34.30282],[-113.51151,34.30507],[-113.5181,34.31055],[-113.52228,34.30899],[-113.53029,34.31027],[-113.53954,34.30638],[-113.55244,34.28841],[-113.56862,34.27471],[-113.5705,34.26868],[-113.58279,34.25866],[-113.58673,34.24345],[-113.60506,34.22953],[-113.60802,34.23162],[-113.61667,34.22767],[-113.62752,34.22872],[-113.63313,34.22495],[-113.63923,34.22339],[-113.64169,34.22762],[-113.64445,34.2258],[-113.64516,34.22128],[-113.6491,34.22172],[-113.65505,34.21661],[-113.65834,34.21761],[-113.66374,34.21231],[-113.66611,34.21355],[-113.67551,34.2129],[-113.68019,34.21003],[-113.70263,34.2102],[-113.70906,34.21597],[-113.71359,34.21746],[-113.71559,34.22176],[-113.72297,34.22335],[-113.72761,34.2346],[-113.73806,34.24056],[-113.75755,34.23659],[-113.7772,34.22889],[-113.79189,34.23527],[-113.80081,34.23622],[-113.8126,34.2325],[-113.81738,34.23485],[-113.82054,34.22804],[-113.83283,34.22353],[-113.83683,34.22381],[-113.84031,34.22765],[-113.85293,34.25199],[-113.85892,34.25351],[-113.8754,34.25449],[-113.89336,34.24926],[-113.90235,34.2485],[-113.92666,34.24935],[-113.95081,34.25715],[-113.96839,34.25793],[-114.00312,34.2537],[-114.01154,34.25607],[-114.01998,34.26598],[-114.02422,34.26815],[-114.02886,34.26166],[-114.03198,34.25954],[-114.03524,34.25983],[-114.03727,34.26317],[-114.04645,34.26957],[-114.05243,34.27774],[-114.05706,34.27918],[-114.06681,34.28858],[-114.07336,34.29185],[-114.07899,34.29207],[-114.08657,34.29785],[-114.10192,34.29873],[-114.11437,34.29539],[-114.13425,34.30418],[-114.13829,34.30324]]]}},{"type":"Feature","properties":{"shapeISO":"","shapeID":"52423323B62960071172507","shapeGroup":"USA","shapeType":"ADM2","name":"Coconino"},"geometry":{"type":"Polygon","coordinates":[[[-113.33417,35.52804],[-113.29928,35.53098],[-113.2622,35.52963],[-113.21881,35.50888],[-113.19915,35.51097],[-113.17447,35.50645],[-113.15797,35.496],[-113.14807,35.4786],[-113.08606,35.453],[-112.97587,35.39291],[-112.9614,35.37675],[-112.95342,35.35612],[-112.9448,35.35261],[-112.88098,35.34208],[-112.79694,35.32296],[-112.75485,35.30631],[-112.73466,35.30506],[-112.69486,35.31159],[-112.67638,35.30673],[-112.65547,35.29191],[-112.63097,35.29997],[-112.61877,35.28997],[-112.62063,35.27487],[-112.60401,35.26923],[-112.57741,35.2434],[-112.54182,35.23634],[-112.49965,35.24267],[-112.47271,35.23832],[-112.44076,35.26047],[-112.44264,35.22175],[-112.44231,35.14941],[-112.33573,35.14828],[-112.33455,34.97303],[-112.02195,34.97409],[-112.00808,34.9759],[-111.80904,34.9763],[-111.77783,34.98101],[-111.78001,34.8182],[-111.77792,34.80332],[-111.55212,34.80253],[-111.55208,34.63641],[-111.5534,34.63642],[-111.55315,34.50004],[-111.55469,34.47174],[-111.5488,34.46088],[-111.5214,34.47782],[-111.52457,34.49497],[-111.50173,34.49794],[-111.51366,34.49194],[-111.51246,34.46784],[-111.53777,34.45929],[-111.52753,34.45464],[-111.50898,34.45467],[-111.4859,34.46379],[-111.47138,34.45703],[-111.5082,34.44096],[-111.51767,34.4304],[-111.55016,34.4188],[-111.53756,34.41251],[-111.51243,34.41567],[-111.49949,34.42744],[-111.46748,34.43776],[-111.48063,34.41955],[-111.46429,34.40924],[-111.46012,34.42516],[-111.44408,34.43283],[-111.43564,34.44611],[-111.40402,34.44502],[-111.40526,34.42851],[-111.42308,34.43723],[-111.4224,34.40824],[-111.42686,34.386],[-111.40034,34.3789],[-111.38643,34.39781],[-111.40341,34.39776],[-111.39724,34.42607],[-111.38817,34.42461],[-111.37168,34.43964],[-111.35189,34.441],[-111.35407,34.42461],[-111.32431,34.4226],[-111.30681,34.43411],[-111.26147,34.44369],[-111.25031,34.45328],[-111.23991,34.43144],[-111.22216,34.42565],[-111.20958,34.40836],[-111.18471,34.41],[-111.15208,34.39427],[-111.1471,34.37519],[-111.12875,34.39037],[-111.11835,34.38305],[-111.09667,34.39644],[-111.03974,34.3733],[-111.05671,34.35309],[-111.03319,34.34094],[-111.02589,34.35383],[-111.03276,34.36385],[-111.00377,34.35678],[-110.99732,34.34413],[-110.97587,34.33684],[-110.95887,34.31447],[-110.94611,34.31729],[-110.90763,34.30077],[-110.89693,34.30245],[-110.87742,34.27581],[-110.84757,34.26564],[-110.82595,34.2758],[-110.83758,34.28076],[-110.82032,34.28811],[-110.84592,34.30714],[-110.81104,34.2957],[-110.78809,34.30907],[-110.78312,34.29987],[-110.76127,34.28788],[-110.7579,34.27934],[-110.76671,34.269],[-110.76697,34.25901],[-110.75069,34.26332],[-110.7507,34.71822],[-110.7507,35.06487],[-110.75071,36.71313],[-110.7507,37.0032],[-111.06651,37.00239],[-111.13373,37.00078],[-111.35021,37.00105],[-112.3577,37.00103],[-112.53859,37.00068],[-112.54377,36.98266],[-112.53098,36.96719],[-112.52931,36.95244],[-112.54497,36.93876],[-112.54652,36.91644],[-112.57152,36.89265],[-112.57311,36.87286],[-112.58716,36.85713],[-112.58478,36.84746],[-112.59364,36.8323],[-112.60039,36.83193],[-112.59763,36.83006],[-112.59661,36.82653],[-112.59961,36.82418],[-112.60102,36.81635],[-112.59843,36.80839],[-112.60561,36.80808],[-112.60412,36.80098],[-112.60558,36.79961],[-112.60872,36.80142],[-112.60921,36.79914],[-112.61339,36.79831],[-112.61406,36.79627],[-112.6121,36.79526],[-112.61388,36.78813],[-112.61926,36.78344],[-112.61684,36.77637],[-112.61223,36.77531],[-112.62065,36.76866],[-112.61502,36.75744],[-112.61049,36.75634],[-112.61051,36.75392],[-112.613,36.75244],[-112.61378,36.75396],[-112.61649,36.75397],[-112.6128,36.74423],[-112.61796,36.74254],[-112.61236,36.73763],[-112.61637,36.73615],[-112.61946,36.7382],[-112.62215,36.73665],[-112.61598,36.72864],[-112.61683,36.72779],[-112.61728,36.72916],[-112.62057,36.72892],[-112.62229,36.72507],[-112.61857,36.72053],[-112.6232,36.71938],[-112.62765,36.71435],[-112.62424,36.71032],[-112.63105,36.70432],[-112.62939,36.70306],[-112.62873,36.69856],[-112.63044,36.69608],[-112.6292,36.69197],[-112.63505,36.68521],[-112.63337,36.6789],[-112.63668,36.67736],[-112.63786,36.67385],[-112.6346,36.67097],[-112.63339,36.66],[-112.62811,36.65358],[-112.62994,36.65002],[-112.62764,36.64896],[-112.62892,36.64421],[-112.62533,36.6337],[-112.62708,36.63038],[-112.62375,36.62749],[-112.62341,36.61749],[-112.61982,36.6145],[-112.61907,36.61168],[-112.62174,36.60803],[-112.61996,36.60312],[-112.62309,36.59858],[-112.62129,36.59644],[-112.62555,36.59399],[-112.62434,36.59076],[-112.62866,36.58844],[-112.62663,36.58138],[-112.62875,36.5817],[-112.62958,36.57645],[-112.63283,36.57743],[-112.63524,36.57626],[-112.63228,36.57126],[-112.63501,36.57002],[-112.64349,36.57141],[-112.64209,36.56554],[-112.64828,36.56341],[-112.64903,36.55992],[-112.65489,36.55517],[-112.65506,36.55295],[-112.65156,36.55237],[-112.65059,36.55029],[-112.65345,36.54369],[-112.65773,36.54316],[-112.66041,36.53942],[-112.6566,36.53804],[-112.65952,36.53221],[-112.65913,36.52958],[-112.65452,36.52892],[-112.65544,36.52109],[-112.65282,36.51789],[-112.65551,36.51389],[-112.65217,36.51049],[-112.64804,36.51043],[-112.64583,36.50876],[-112.6448,36.50658],[-112.64687,36.50288],[-112.6417,36.50065],[-112.64551,36.49666],[-112.63663,36.49448],[-112.63611,36.49082],[-112.63839,36.49058],[-112.63857,36.48783],[-112.63615,36.48601],[-112.6297,36.48649],[-112.62447,36.48388],[-112.6221,36.48417],[-112.6229,36.48176],[-112.62563,36.48051],[-112.62464,36.47365],[-112.63051,36.47106],[-112.62969,36.46438],[-112.63292,36.4627],[-112.63554,36.46375],[-112.64479,36.45795],[-112.64223,36.4549],[-112.64188,36.44855],[-112.64543,36.448],[-112.64524,36.44615],[-112.64242,36.4462],[-112.63739,36.44235],[-112.64149,36.43936],[-112.64401,36.44086],[-112.64681,36.43944],[-112.64422,36.43821],[-112.64432,36.43551],[-112.64062,36.43269],[-112.6388,36.42712],[-112.63689,36.42573],[-112.63206,36.42752],[-112.6293,36.42595],[-112.6308,36.42399],[-112.62443,36.41375],[-112.62569,36.41235],[-112.62411,36.41025],[-112.62514,36.40671],[-112.62991,36.40305],[-112.63148,36.39975],[-112.63158,36.39135],[-112.63439,36.39077],[-112.64993,36.37196],[-112.65259,36.36286],[-112.66241,36.35188],[-112.67354,36.34405],[-112.67948,36.34195],[-112.68714,36.34809],[-112.69159,36.35481],[-112.70191,36.35415],[-112.7191,36.34803],[-112.72622,36.33964],[-112.72015,36.32402],[-112.73181,36.31777],[-112.75076,36.32545],[-112.75872,36.32073],[-112.76353,36.30805],[-112.77173,36.30311],[-112.78684,36.30147],[-112.78914,36.29748],[-112.7891,36.29093],[-112.79635,36.28385],[-112.81,36.28788],[-112.82687,36.28783],[-112.83251,36.28495],[-112.84088,36.27725],[-112.85166,36.27846],[-112.86643,36.28251],[-112.87604,36.27834],[-112.88284,36.26548],[-112.89723,36.25544],[-112.90495,36.25438],[-112.91609,36.2582],[-112.92438,36.25709],[-112.93201,36.24443],[-112.93938,36.2416],[-112.98122,36.23177],[-112.98797,36.23238],[-113.0058,36.23851],[-113.01283,36.23848],[-113.01912,36.23671],[-113.03642,36.22808],[-113.05336,36.20908],[-113.07267,36.20288],[-113.1068,36.18712],[-113.11536,36.18219],[-113.11974,36.17561],[-113.12581,36.17052],[-113.13772,36.16659],[-113.14564,36.17283],[-113.15737,36.17413],[-113.1657,36.16976],[-113.16772,36.16593],[-113.17651,36.16069],[-113.20029,36.15046],[-113.20529,36.13314],[-113.20204,36.12121],[-113.20539,36.1152],[-113.21273,36.11025],[-113.21671,36.10499],[-113.2229,36.09298],[-113.23292,36.08995],[-113.24262,36.09271],[-113.25878,36.08933],[-113.27926,36.09734],[-113.29641,36.09582],[-113.30884,36.09956],[-113.32317,36.09163],[-113.32618,36.07843],[-113.33198,36.0672],[-113.34745,36.05504],[-113.35035,36.05047],[-113.35152,36.03326],[-113.35019,36.02138],[-113.34309,36.00878],[-113.34004,35.99938],[-113.34139,35.99134],[-113.33979,35.98516],[-113.33509,35.98008],[-113.32151,35.97567],[-113.31732,35.96846],[-113.31868,35.96693],[-113.31721,35.96154],[-113.32396,35.95597],[-113.3287,35.94903],[-113.32537,35.93785],[-113.33014,35.924],[-113.33415,35.91872],[-113.33443,35.91314],[-113.32823,35.90811],[-113.32262,35.89857],[-113.31642,35.89559],[-113.30991,35.8835],[-113.31226,35.86988],[-113.31111,35.86178],[-113.32166,35.84824],[-113.32708,35.83787],[-113.32581,35.83014],[-113.33311,35.82043],[-113.33178,35.81619],[-113.33404,35.80304],[-113.33417,35.52804]]]}},{"type":"Feature","properties":{"shapeISO":"","shapeID":"52423323B99315051552268","shapeGroup":"USA","shapeType":"ADM2","name":"Gila"},"geometry":{"type":"Polygon","coordinates":[[[-111.55469,34.47174],[-111.55461,34.43939],[-111.58123,34.41971],[-111.60482,34.41621],[-111.61808,34.40133],[-111.65966,34.38626],[-111.65695,34.3684],[-111.66727,34.34826],[-111.66244,34.32465],[-111.66788,34.3082],[-111.67442,34.30617],[-111.68459,34.29749],[-111.67583,34.28939],[-111.66353,34.29492],[-111.66578,34.28557],[-111.68349,34.28296],[-111.67745,34.27011],[-111.69987,34.24026],[-111.70484,34.21221],[-111.6902,34.20001],[-111.69498,34.18121],[-111.72058,34.16143],[-111.71213,34.15128],[-111.47786,34.15111],[-111.49366,34.13398],[-111.48199,34.13159],[-111.47138,34.11155],[-111.48592,34.09501],[-111.4644,34.07267],[-111.47348,34.04131],[-111.49325,34.03811],[-111.49479,33.99982],[-111.46654,34.00595],[-111.44509,34.00118],[-111.43328,33.98333],[-111.45294,33.96221],[-111.4474,33.94174],[-111.45091,33.91988],[-111.4375,33.91618],[-111.42576,33.9261],[-111.40537,33.91959],[-111.41234,33.88473],[-111.39773,33.87783],[-111.38747,33.86296],[-111.3958,33.84428],[-111.37233,33.82393],[-111.38792,33.80322],[-111.37982,33.79574],[-111.38945,33.77667],[-111.38682,33.75005],[-111.35936,33.74098],[-111.33814,33.71868],[-111.3314,33.68834],[-111.31382,33.68048],[-111.2865,33.65738],[-111.26174,33.62258],[-111.24955,33.62434],[-111.22207,33.60245],[-111.20746,33.62058],[-111.20945,33.6335],[-111.18063,33.6598],[-111.15336,33.67761],[-111.03999,33.46602],[-110.97472,33.3421],[-110.94669,33.25006],[-110.7807,32.98368],[-110.7664,32.98536],[-110.76512,33.00286],[-110.7466,33.01084],[-110.72935,33.02731],[-110.71684,33.05282],[-110.72559,33.0699],[-110.70623,33.08374],[-110.69334,33.07706],[-110.6833,33.08812],[-110.6779,33.11137],[-110.65679,33.11355],[-110.63254,33.14278],[-110.61127,33.14313],[-110.59347,33.13393],[-110.57946,33.14714],[-110.54971,33.1531],[-110.54597,33.16877],[-110.53433,33.16772],[-110.50474,33.18625],[-110.4633,33.18335],[-110.44903,33.19453],[-110.4447,33.18936],[-110.43442,33.18858],[-110.42799,33.19162],[-110.41389,33.19178],[-110.40725,33.19349],[-110.40583,33.19724],[-110.40821,33.20421],[-110.42011,33.22092],[-110.42491,33.23188],[-110.43893,33.25306],[-110.44463,33.25752],[-110.4442,33.26251],[-110.44902,33.26656],[-110.44884,33.27194],[-110.45176,33.2798],[-110.45498,33.28233],[-110.45361,33.28619],[-110.45494,33.29116],[-110.45702,33.29143],[-110.45745,33.29498],[-110.44967,33.29778],[-110.44805,33.3018],[-110.4504,33.31771],[-110.44653,33.32347],[-110.44834,33.34228],[-110.44804,33.34633],[-110.4451,33.35054],[-110.45168,33.36327],[-110.44309,33.36787],[-110.44299,33.37738],[-110.43642,33.38452],[-110.42999,33.38745],[-110.42179,33.38597],[-110.41826,33.38888],[-110.41428,33.39835],[-110.41087,33.40032],[-110.38914,33.403],[-110.38686,33.40557],[-110.38272,33.40566],[-110.37874,33.40243],[-110.36927,33.39839],[-110.3599,33.39993],[-110.35402,33.40407],[-110.35115,33.40857],[-110.34935,33.40869],[-110.34678,33.41325],[-110.34661,33.4178],[-110.34107,33.42219],[-110.3412,33.42693],[-110.32688,33.42841],[-110.31977,33.43299],[-110.2979,33.4289],[-110.29036,33.43079],[-110.27559,33.44074],[-110.26108,33.43639],[-110.23507,33.44013],[-110.23161,33.44259],[-110.21357,33.43776],[-110.21178,33.44038],[-110.2082,33.44114],[-110.20629,33.43938],[-110.20141,33.44013],[-110.19785,33.44305],[-110.19332,33.4422],[-110.19181,33.44456],[-110.19325,33.44731],[-110.18786,33.45039],[-110.18633,33.44876],[-110.1741,33.45008],[-110.16918,33.45482],[-110.16925,33.45895],[-110.14351,33.46576],[-110.05656,33.46614],[-110.00066,33.48832],[-110.00066,33.57694],[-110.00067,34.00005],[-110.75068,34.00005],[-110.75069,34.26332],[-110.76697,34.25901],[-110.76671,34.269],[-110.7579,34.27934],[-110.76127,34.28788],[-110.78312,34.29987],[-110.78809,34.30907],[-110.81104,34.2957],[-110.84592,34.30714],[-110.82032,34.28811],[-110.83758,34.28076],[-110.82595,34.2758],[-110.84757,34.26564],[-110.87742,34.27581],[-110.89693,34.30245],[-110.90763,34.30077],[-110.94611,34.31729],[-110.95887,34.31447],[-110.97587,34.33684],[-110.99732,34.34413],[-111.00377,34.35678],[-111.03276,34.36385],[-111.02589,34.35383],[-111.03319,34.34094],[-111.05671,34.35309],[-111.03974,34.3733],[-111.09667,34.39644],[-111.11835,34.38305],[-111.12875,34.39037],[-111.1471,34.37519],[-111.15208,34.39427],[-111.18471,34.41],[-111.20958,34.40836],[-111.22216,34.42565],[-111.23991,34.43144],[-111.25031,34.45328],[-111.26147,34.44369],[-111.30681,34.43411],[-111.32431,34.4226],[-111.35407,34.42461],[-111.35189,34.441],[-111.37168,34.43964],[-111.38817,34.42461],[-111.39724,34.42607],[-111.40341,34.39776],[-111.38643,34.39781],[-111.40034,34.3789],[-111.42686,34.386],[-111.4224,34.40824],[-111.42308,34.43723],[-111.40526,34.42851],[-111.40402,34.44502],[-111.43564,34.44611],[-111.44408,34.43283],[-111.46012,34.42516],[-111.46429,34.40924],[-111.48063,34.41955],[-111.46748,34.43776],[-111.49949,34.42744],[-111.51243,34.41567],[-111.53756,34.41251],[-111.55016,34.4188],[-111.51767,34.4304],[-111.5082,34.44096],[-111.47138,34.45703],[-111.4859,34.46379],[-111.50898,34.45467],[-111.52753,34.45464],[-111.53777,34.45929],[-111.51246,34.46784],[-111.51366,34.49194],[-111.50173,34.49794],[-111.52457,34.49497],[-111.5214,34.47782],[-111.5488,34.46088],[-111.55469,34.47174]]]}},{"type":"Feature","properties":{"shapeISO":"","shapeID":"52423323B72402136661240","shapeGroup":"USA","shapeType":"ADM2","name":"Pima"},"geometry":{"type":"Polygon","coordinates":[[[-113.33391,32.50494],[-113.33378,32.03877],[-113.12597,31.97278],[-112.86709,31.89549],[-112.37577,31.74399],[-111.97943,31.62069],[-111.36658,31.42614],[-111.36662,31.5213],[-111.16374,31.52183],[-111.16419,31.72599],[-110.8556,31.72666],[-110.85564,31.7317],[-110.45175,31.73127],[-110.4477,32.25008],[-110.45103,32.2538],[-110.45151,32.42736],[-110.45123,32.514],[-110.84511,32.51387],[-110.85873,32.51123],[-111.1575,32.51126],[-111.15757,32.50166],[-111.35154,32.50136],[-111.56927,32.50677],[-112.20373,32.50676],[-112.49741,32.50542],[-113.33391,32.50494]]]}},{"type":"Feature","properties":{"shapeISO":"","shapeID":"52423323B93647130667122","shapeGroup":"USA","shapeType":"ADM2","name":"Greenlee"},"geometry":{"type":"Polygon","coordinates":[[[-109.04695,33.77823],[-109.34798,33.77746],[-109.36277,33.75215],[-109.36463,33.73876],[-109.35299,33.72492],[-109.37848,33.72465],[-109.41248,33.70845],[-109.44179,33.71306],[-109.46175,33.69642],[-109.48015,33.69142],[-109.48171,33.65484],[-109.49545,33.6527],[-109.49575,33.07841],[-109.33344,32.84327],[-109.31816,32.84278],[-109.25238,32.75024],[-109.24502,32.74199],[-109.21384,32.68067],[-109.21297,32.65363],[-109.20626,32.63581],[-109.2195,32.60169],[-109.21128,32.5843],[-109.22596,32.54304],[-109.22608,32.5291],[-109.114,32.42618],[-109.04762,32.42638],[-109.04713,32.7778],[-109.04725,33.2089],[-109.04695,33.77823]]]}},{"type":"Feature","properties":{"shapeISO":"","shapeID":"52423323B83526967033235","shapeGroup":"USA","shapeType":"ADM2","name":"Navajo"},"geometry":{"type":"Polygon","coordinates":[[[-110.7507,37.0032],[-110.75071,36.71313],[-110.7507,35.06487],[-110.7507,34.71822],[-110.75069,34.26332],[-110.75068,34.00005],[-110.00067,34.00005],[-110.00066,33.57694],[-109.99598,33.58227],[-109.96112,33.57958],[-109.92334,33.56752],[-109.91604,33.57487],[-109.89177,33.56783],[-109.89178,33.77778],[-109.85928,33.77769],[-109.8594,34.126],[-109.8494,34.12595],[-109.84826,34.47344],[-109.84904,34.48828],[-109.86524,34.55969],[-109.85052,34.64731],[-109.85181,34.82252],[-109.84463,34.82257],[-109.84371,35.17041],[-109.84377,35.51788],[-109.8269,35.51788],[-109.82695,35.66249],[-110.00068,35.66266],[-110.00069,36.99799],[-110.4702,36.998],[-110.49092,37.00357],[-110.5007,37.00427],[-110.7507,37.0032]]]}},{"type":"Feature","properties":{"shapeISO":"","shapeID":"52423323B41142242539063","shapeGroup":"USA","shapeType":"ADM2","name":"Yavapai"},"geometry":{"type":"Polygon","coordinates":[[[-113.33352,34.31788],[-113.33376,33.99923],[-112.74396,33.9999],[-112.27605,33.88232],[-112.26444,33.8991],[-112.24297,33.90558],[-112.23554,33.91548],[-112.23191,33.93654],[-112.24127,33.94112],[-112.21449,33.9681],[-112.19567,33.97451],[-112.19339,33.99031],[-112.1804,34.00575],[-112.18325,34.01195],[-112.16176,34.01928],[-112.16536,34.03314],[-112.15366,34.04091],[-112.16477,34.04818],[-111.72532,33.99985],[-111.49479,33.99982],[-111.49325,34.03811],[-111.47348,34.04131],[-111.4644,34.07267],[-111.48592,34.09501],[-111.47138,34.11155],[-111.48199,34.13159],[-111.49366,34.13398],[-111.47786,34.15111],[-111.71213,34.15128],[-111.72058,34.16143],[-111.69498,34.18121],[-111.6902,34.20001],[-111.70484,34.21221],[-111.69987,34.24026],[-111.67745,34.27011],[-111.68349,34.28296],[-111.66578,34.28557],[-111.66353,34.29492],[-111.67583,34.28939],[-111.68459,34.29749],[-111.67442,34.30617],[-111.66788,34.3082],[-111.66244,34.32465],[-111.66727,34.34826],[-111.65695,34.3684],[-111.65966,34.38626],[-111.61808,34.40133],[-111.60482,34.41621],[-111.58123,34.41971],[-111.55461,34.43939],[-111.55469,34.47174],[-111.55315,34.50004],[-111.5534,34.63642],[-111.55208,34.63641],[-111.55212,34.80253],[-111.77792,34.80332],[-111.78001,34.8182],[-111.77783,34.98101],[-111.80904,34.9763],[-112.00808,34.9759],[-112.02195,34.97409],[-112.33455,34.97303],[-112.33573,35.14828],[-112.44231,35.14941],[-112.44264,35.22175],[-112.44076,35.26047],[-112.47271,35.23832],[-112.49965,35.24267],[-112.54182,35.23634],[-112.57741,35.2434],[-112.60401,35.26923],[-112.62063,35.27487],[-112.61877,35.28997],[-112.63097,35.29997],[-112.65547,35.29191],[-112.67638,35.30673],[-112.69486,35.31159],[-112.73466,35.30506],[-112.75485,35.30631],[-112.79694,35.32296],[-112.88098,35.34208],[-112.9448,35.35261],[-112.95342,35.35612],[-112.9614,35.37675],[-112.97587,35.39291],[-113.08606,35.453],[-113.14807,35.4786],[-113.15797,35.496],[-113.17447,35.50645],[-113.19915,35.51097],[-113.21881,35.50888],[-113.2622,35.52963],[-113.29928,35.53098],[-113.33417,35.52804],[-113.33353,34.74832],[-113.33352,34.31788]]]}},{"type":"Feature","properties":{"shapeISO":"","shapeID":"52423323B18852235556590","shapeGroup":"USA","shapeType":"ADM2","name":"Clark"},"geometry":{"type":"Polygon","coordinates":[[[-114.05063,36.84315],[-114.76231,36.84386],[-114.76252,36.85348],[-115.74086,36.85309],[-115.74076,36.84191],[-115.89694,36.84209],[-115.89576,36.17223],[-115.84577,36.17077],[-115.846,35.96421],[-115.64803,35.80963],[-115.40609,35.61862],[-115.10289,35.37938],[-114.6335,35.00186],[-114.63669,35.00881],[-114.63803,35.02056],[-114.6369,35.02837],[-114.62714,35.04473],[-114.60671,35.05895],[-114.60292,35.06859],[-114.60475,35.07484],[-114.61314,35.0831],[-114.62253,35.08871],[-114.64284,35.09651],[-114.64677,35.10188],[-114.64436,35.10591],[-114.62995,35.11828],[-114.61992,35.12164],[-114.59913,35.12106],[-114.58775,35.12373],[-114.57854,35.12876],[-114.57276,35.13873],[-114.56958,35.16306],[-114.56925,35.18349],[-114.57213,35.2006],[-114.57485,35.2059],[-114.57997,35.20965],[-114.58714,35.26238],[-114.59751,35.29696],[-114.59594,35.32524],[-114.60433,35.35359],[-114.62715,35.40951],[-114.65202,35.42917],[-114.66214,35.44425],[-114.66451,35.4495],[-114.66639,35.46686],[-114.67765,35.48975],[-114.67922,35.5],[-114.67722,35.5135],[-114.67382,35.5179],[-114.66312,35.5245],[-114.65802,35.5305],[-114.65692,35.5344],[-114.66202,35.5455],[-114.66302,35.5637],[-114.6662,35.57758],[-114.65432,35.5976],[-114.65342,35.61079],[-114.65822,35.61909],[-114.67712,35.64149],[-114.68942,35.65142],[-114.69002,35.66469],[-114.68222,35.67819],[-114.68062,35.68549],[-114.68322,35.68939],[-114.69412,35.69519],[-114.70122,35.70119],[-114.70542,35.70829],[-114.69732,35.73369],[-114.69572,35.75599],[-114.70142,35.76909],[-114.69892,35.79019],[-114.71212,35.80619],[-114.70992,35.81019],[-114.70372,35.81459],[-114.69572,35.83061],[-114.69986,35.84329],[-114.69778,35.85485],[-114.68202,35.86329],[-114.6697,35.86509],[-114.66721,35.87479],[-114.70028,35.90178],[-114.70853,35.91232],[-114.70754,35.92807],[-114.7157,35.93471],[-114.72937,35.94142],[-114.73117,35.94392],[-114.72833,35.9563],[-114.72995,35.96219],[-114.74061,35.97566],[-114.74377,35.9851],[-114.74279,36.00997],[-114.73117,36.02187],[-114.72972,36.02817],[-114.73045,36.03132],[-114.73433,36.03569],[-114.73942,36.03787],[-114.74063,36.04102],[-114.74039,36.04926],[-114.73675,36.05435],[-114.73626,36.05848],[-114.74335,36.07054],[-114.75411,36.07945],[-114.75563,36.08717],[-114.74709,36.09701],[-114.73618,36.10437],[-114.70978,36.10775],[-114.66655,36.11735],[-114.65996,36.12415],[-114.63173,36.14231],[-114.62787,36.14102],[-114.62189,36.13214],[-114.61671,36.13011],[-114.60828,36.13395],[-114.59722,36.14211],[-114.57204,36.15162],[-114.5458,36.15225],[-114.51173,36.15096],[-114.50464,36.14563],[-114.50578,36.13145],[-114.50218,36.1288],[-114.49613,36.12786],[-114.48705,36.1294],[-114.47016,36.13881],[-114.46365,36.1397],[-114.45838,36.13859],[-114.45334,36.13073],[-114.44662,36.12598],[-114.42718,36.13631],[-114.41696,36.14577],[-114.40549,36.14738],[-114.37212,36.14312],[-114.36312,36.13025],[-114.33728,36.10803],[-114.32879,36.10551],[-114.30844,36.08245],[-114.30575,36.07489],[-114.30789,36.0713],[-114.31422,36.06662],[-114.31612,36.06311],[-114.31557,36.0595],[-114.28021,36.04637],[-114.26673,36.02924],[-114.25266,36.0202],[-114.23881,36.01457],[-114.2137,36.01562],[-114.19239,36.021],[-114.17684,36.02766],[-114.16648,36.02774],[-114.15414,36.02387],[-114.1482,36.02802],[-114.13821,36.04129],[-114.13691,36.05947],[-114.11454,36.09522],[-114.11418,36.09699],[-114.11747,36.1009],[-114.12323,36.10475],[-114.12316,36.11158],[-114.12087,36.1146],[-114.11102,36.11988],[-114.10323,36.12018],[-114.09988,36.12166],[-114.08897,36.14439],[-114.06804,36.18067],[-114.06031,36.18937],[-114.04685,36.19407],[-114.04853,36.2896],[-114.04695,36.31545],[-114.04584,36.44298],[-114.04849,36.49999],[-114.05057,36.65626],[-114.05063,36.84315]]]}},{"type":"Feature","properties":{"shapeISO":"","shapeID":"52423323B36944168134022","shapeGroup":"USA","shapeType":"ADM2","name":"Yuma"},"geometry":{"type":"Polygon","coordinates":[[[-114.5165,33.02758],[-114.50614,33.01701],[-114.49981,33.00391],[-114.49295,32.97179],[-114.48864,32.96995],[-114.47617,32.97517],[-114.46905,32.9723],[-114.46774,32.95633],[-114.47084,32.94934],[-114.47847,32.94056],[-114.48093,32.93526],[-114.47665,32.92363],[-114.46366,32.91169],[-114.46314,32.90189],[-114.46898,32.84516],[-114.49413,32.82329],[-114.51023,32.81642],[-114.52204,32.80168],[-114.53077,32.79349],[-114.53244,32.77693],[-114.52845,32.76728],[-114.52687,32.7571],[-114.5391,32.75695],[-114.61478,32.73409],[-114.6156,32.72845],[-114.61838,32.72825],[-114.68879,32.73768],[-114.6988,32.74485],[-114.70193,32.74555],[-114.71453,32.73039],[-114.71964,32.71877],[-114.7301,32.7043],[-114.73046,32.69885],[-114.76496,32.6494],[-114.78225,32.63022],[-114.79758,32.62458],[-114.8094,32.61712],[-114.79969,32.59363],[-114.8142,32.56479],[-114.79565,32.55096],[-114.81155,32.52284],[-114.81362,32.49428],[-114.25079,32.32391],[-113.75077,32.16901],[-113.33378,32.03877],[-113.33391,32.50494],[-113.3338,33.02348],[-113.33393,33.37743],[-113.95806,33.37758],[-113.95805,33.46466],[-114.26783,33.46358],[-114.26876,33.02982],[-114.33916,33.03],[-114.37114,33.02752],[-114.5165,33.02758]]]}},{"type":"Feature","properties":{"shapeISO":"","shapeID":"52423323B99674467123190","shapeGroup":"USA","shapeType":"ADM2","name":"Pinal"},"geometry":{"type":"Polygon","coordinates":[[[-111.03999,33.46602],[-111.58064,33.46581],[-111.58306,33.20546],[-111.88891,33.20339],[-111.8931,33.20482],[-112.0835,33.20457],[-112.09582,33.23036],[-112.11369,33.22748],[-112.14913,33.25382],[-112.1918,33.26504],[-112.19752,33.27844],[-112.1937,33.29895],[-112.2033,33.31054],[-112.20198,33.08703],[-112.20373,32.50676],[-111.56927,32.50677],[-111.35154,32.50136],[-111.15757,32.50166],[-111.1575,32.51126],[-110.85873,32.51123],[-110.84511,32.51387],[-110.45123,32.514],[-110.44916,32.51947],[-110.44903,33.19453],[-110.4633,33.18335],[-110.50474,33.18625],[-110.53433,33.16772],[-110.54597,33.16877],[-110.54971,33.1531],[-110.57946,33.14714],[-110.59347,33.13393],[-110.61127,33.14313],[-110.63254,33.14278],[-110.65679,33.11355],[-110.6779,33.11137],[-110.6833,33.08812],[-110.69334,33.07706],[-110.70623,33.08374],[-110.72559,33.0699],[-110.71684,33.05282],[-110.72935,33.02731],[-110.7466,33.01084],[-110.76512,33.00286],[-110.7664,32.98536],[-110.7807,32.98368],[-110.94669,33.25006],[-110.97472,33.3421],[-111.03999,33.46602]]]}},{"type":"Feature","properties":{"shapeISO":"","shapeID":"52423323B39165499279829","shapeGroup":"USA","shapeType":"ADM2","name":"Apache"},"geometry":{"type":"Polygon","coordinates":[[[-109.04598,36.00271],[-109.04544,36.50001],[-109.04523,36.99909],[-109.62568,36.99831],[-110.00069,36.99799],[-110.00068,35.66266],[-109.82695,35.66249],[-109.8269,35.51788],[-109.84377,35.51788],[-109.84371,35.17041],[-109.84463,34.82257],[-109.85181,34.82252],[-109.85052,34.64731],[-109.86524,34.55969],[-109.84904,34.48828],[-109.84826,34.47344],[-109.8494,34.12595],[-109.8594,34.126],[-109.85928,33.77769],[-109.89178,33.77778],[-109.89177,33.56783],[-109.88156,33.57126],[-109.83818,33.52919],[-109.83046,33.53527],[-109.81951,33.52099],[-109.82263,33.50889],[-109.80681,33.50479],[-109.80328,33.48173],[-109.79979,33.48832],[-109.78403,33.47656],[-109.76728,33.47542],[-109.74658,33.4849],[-109.74405,33.50328],[-109.73147,33.52106],[-109.71311,33.5252],[-109.68454,33.54379],[-109.67195,33.55935],[-109.67554,33.57324],[-109.66049,33.58373],[-109.62128,33.58322],[-109.60417,33.60138],[-109.60289,33.61288],[-109.58559,33.61285],[-109.5594,33.62643],[-109.5551,33.62019],[-109.52819,33.62292],[-109.51484,33.64172],[-109.49545,33.6527],[-109.48171,33.65484],[-109.48015,33.69142],[-109.46175,33.69642],[-109.44179,33.71306],[-109.41248,33.70845],[-109.37848,33.72465],[-109.35299,33.72492],[-109.36463,33.73876],[-109.36277,33.75215],[-109.34798,33.77746],[-109.04695,33.77823],[-109.04702,34.00006],[-109.04617,34.5793],[-109.04586,34.95982],[-109.04652,35.54645],[-109.04598,36.00271]]]}},{"type":"Feature","properties":{"shapeISO":"","shapeID":"52423323B1252961664996","shapeGroup":"USA","shapeType":"ADM2","name":"Santa Cruz"},"geometry":{"type":"Polygon","coordinates":[[[-111.36658,31.42614],[-111.07484,31.33224],[-110.79548,31.33363],[-110.46018,31.33283],[-110.46057,31.61404],[-110.45226,31.61394],[-110.45175,31.73127],[-110.85564,31.7317],[-110.8556,31.72666],[-111.16419,31.72599],[-111.16374,31.52183],[-111.36662,31.5213],[-111.36658,31.42614]]]}},{"type":"Feature","properties":{"shapeISO":"","shapeID":"52423323B82502698650850","shapeGroup":"USA","shapeType":"ADM2","name":"Cochise"},"geometry":{"type":"Polygon","coordinates":[[[-110.45175,31.73127],[-110.45226,31.61394],[-110.46057,31.61404],[-110.46018,31.33283],[-110.00062,31.33315],[-109.8297,31.33407],[-109.2785,31.33396],[-109.05005,31.33251],[-109.0486,31.8708],[-109.04762,32.42638],[-109.114,32.42618],[-109.22221,32.42647],[-109.22783,32.42448],[-110.17045,32.42638],[-110.45151,32.42736],[-110.45103,32.2538],[-110.4477,32.25008],[-110.45175,31.73127]]]}},{"type":"Feature","properties":{"shapeISO":"","shapeID":"52423323B37240473864365","shapeGroup":"USA","shapeType":"ADM2","name":"Imperial"},"geometry":{"type":"Polygon","coordinates":[[[-114.62714,33.43356],[-114.83084,33.4301],[-115.46752,33.427],[-116.08518,33.42594],[-116.0811,33.07484],[-116.10326,33.07467],[-116.10316,32.7265],[-116.10565,32.72157],[-116.10619,32.61865],[-115.46518,32.6671],[-114.71964,32.71877],[-114.71453,32.73039],[-114.70193,32.74555],[-114.6988,32.74485],[-114.68879,32.73768],[-114.61838,32.72825],[-114.6156,32.72845],[-114.61478,32.73409],[-114.5391,32.75695],[-114.52687,32.7571],[-114.52845,32.76728],[-114.53244,32.77693],[-114.53077,32.79349],[-114.52204,32.80168],[-114.51023,32.81642],[-114.49413,32.82329],[-114.46898,32.84516],[-114.46314,32.90189],[-114.46366,32.91169],[-114.47665,32.92363],[-114.48093,32.93526],[-114.47847,32.94056],[-114.47084,32.94934],[-114.46774,32.95633],[-114.46905,32.9723],[-114.47617,32.97517],[-114.48864,32.96995],[-114.49295,32.97179],[-114.49981,33.00391],[-114.50614,33.01701],[-114.5165,33.02758],[-114.52359,33.03097],[-114.53847,33.03343],[-114.57166,33.03663],[-114.5783,33.03538],[-114.58478,33.02824],[-114.58979,33.02623],[-114.60103,33.02541],[-114.6188,33.02721],[-114.6283,33.03106],[-114.63956,33.0453],[-114.64599,33.04891],[-114.64901,33.04677],[-114.65784,33.03383],[-114.66233,33.03268],[-114.67081,33.03799],[-114.67367,33.0419],[-114.67512,33.04754],[-114.67431,33.05718],[-114.687,33.07097],[-114.68913,33.07613],[-114.68903,33.08404],[-114.69464,33.08623],[-114.70474,33.08706],[-114.70783,33.09111],[-114.70619,33.10534],[-114.69684,33.13121],[-114.68709,33.1422],[-114.67937,33.15952],[-114.68026,33.16972],[-114.67537,33.18549],[-114.67876,33.20345],[-114.67364,33.22313],[-114.68955,33.24643],[-114.6745,33.2556],[-114.6721,33.2585],[-114.67704,33.27017],[-114.68052,33.27358],[-114.69446,33.27979],[-114.72168,33.28699],[-114.73123,33.30244],[-114.72363,33.31211],[-114.70797,33.32343],[-114.70095,33.33702],[-114.69805,33.35245],[-114.69906,33.36115],[-114.70736,33.37663],[-114.70732,33.38255],[-114.72288,33.39878],[-114.72555,33.40406],[-114.72384,33.40654],[-114.72008,33.4079],[-114.70174,33.40839],[-114.69772,33.41095],[-114.69567,33.41513],[-114.68796,33.41795],[-114.67391,33.4183],[-114.65839,33.41304],[-114.64955,33.41364],[-114.63519,33.42273],[-114.62965,33.42814],[-114.62714,33.43356]]]}},{"type":"Feature","properties":{"shapeISO":"","shapeID":"52423323B41946106713870","shapeGroup":"USA","shapeType":"ADM2","name":"Maricopa"},"geometry":{"type":"Polygon","coordinates":[[[-113.33393,33.37743],[-113.3338,33.02348],[-113.33391,32.50494],[-112.49741,32.50542],[-112.20373,32.50676],[-112.20198,33.08703],[-112.2033,33.31054],[-112.1937,33.29895],[-112.19752,33.27844],[-112.1918,33.26504],[-112.14913,33.25382],[-112.11369,33.22748],[-112.09582,33.23036],[-112.0835,33.20457],[-111.8931,33.20482],[-111.88891,33.20339],[-111.58306,33.20546],[-111.58064,33.46581],[-111.03999,33.46602],[-111.15336,33.67761],[-111.18063,33.6598],[-111.20945,33.6335],[-111.20746,33.62058],[-111.22207,33.60245],[-111.24955,33.62434],[-111.26174,33.62258],[-111.2865,33.65738],[-111.31382,33.68048],[-111.3314,33.68834],[-111.33814,33.71868],[-111.35936,33.74098],[-111.38682,33.75005],[-111.38945,33.77667],[-111.37982,33.79574],[-111.38792,33.80322],[-111.37233,33.82393],[-111.3958,33.84428],[-111.38747,33.86296],[-111.39773,33.87783],[-111.41234,33.88473],[-111.40537,33.91959],[-111.42576,33.9261],[-111.4375,33.91618],[-111.45091,33.91988],[-111.4474,33.94174],[-111.45294,33.96221],[-111.43328,33.98333],[-111.44509,34.00118],[-111.46654,34.00595],[-111.49479,33.99982],[-111.72532,33.99985],[-112.16477,34.04818],[-112.15366,34.04091],[-112.16536,34.03314],[-112.16176,34.01928],[-112.18325,34.01195],[-112.1804,34.00575],[-112.19339,33.99031],[-112.19567,33.97451],[-112.21449,33.9681],[-112.24127,33.94112],[-112.23191,33.93654],[-112.23554,33.91548],[-112.24297,33.90558],[-112.26444,33.8991],[-112.27605,33.88232],[-112.74396,33.9999],[-113.33376,33.99923],[-113.33393,33.37743]]]}},{"type":"Feature","properties":{"shapeISO":"","shapeID":"52423323B31038299720868","shapeGroup":"USA","shapeType":"ADM2","name":"Graham"},"geometry":{"type":"Polygon","coordinates":[[[-110.44903,33.19453],[-110.44916,32.51947],[-110.45123,32.514],[-110.45151,32.42736],[-110.17045,32.42638],[-109.22783,32.42448],[-109.22221,32.42647],[-109.114,32.42618],[-109.22608,32.5291],[-109.22596,32.54304],[-109.21128,32.5843],[-109.2195,32.60169],[-109.20626,32.63581],[-109.21297,32.65363],[-109.21384,32.68067],[-109.24502,32.74199],[-109.25238,32.75024],[-109.31816,32.84278],[-109.33344,32.84327],[-109.49575,33.07841],[-109.49545,33.6527],[-109.51484,33.64172],[-109.52819,33.62292],[-109.5551,33.62019],[-109.5594,33.62643],[-109.58559,33.61285],[-109.60289,33.61288],[-109.60417,33.60138],[-109.62128,33.58322],[-109.66049,33.58373],[-109.67554,33.57324],[-109.67195,33.55935],[-109.68454,33.54379],[-109.71311,33.5252],[-109.73147,33.52106],[-109.74405,33.50328],[-109.74658,33.4849],[-109.76728,33.47542],[-109.78403,33.47656],[-109.79979,33.48832],[-109.80328,33.48173],[-109.80681,33.50479],[-109.82263,33.50889],[-109.81951,33.52099],[-109.83046,33.53527],[-109.83818,33.52919],[-109.88156,33.57126],[-109.89177,33.56783],[-109.91604,33.57487],[-109.92334,33.56752],[-109.96112,33.57958],[-109.99598,33.58227],[-110.00066,33.57694],[-110.00066,33.48832],[-110.05656,33.46614],[-110.14351,33.46576],[-110.16925,33.45895],[-110.16918,33.45482],[-110.1741,33.45008],[-110.18633,33.44876],[-110.18786,33.45039],[-110.19325,33.44731],[-110.19181,33.44456],[-110.19332,33.4422],[-110.19785,33.44305],[-110.20141,33.44013],[-110.20629,33.43938],[-110.2082,33.44114],[-110.21178,33.44038],[-110.21357,33.43776],[-110.23161,33.44259],[-110.23507,33.44013],[-110.26108,33.43639],[-110.27559,33.44074],[-110.29036,33.43079],[-110.2979,33.4289],[-110.31977,33.43299],[-110.32688,33.42841],[-110.3412,33.42693],[-110.34107,33.42219],[-110.34661,33.4178],[-110.34678,33.41325],[-110.34935,33.40869],[-110.35115,33.40857],[-110.35402,33.40407],[-110.3599,33.39993],[-110.36927,33.39839],[-110.37874,33.40243],[-110.38272,33.40566],[-110.38686,33.40557],[-110.38914,33.403],[-110.41087,33.40032],[-110.41428,33.39835],[-110.41826,33.38888],[-110.42179,33.38597],[-110.42999,33.38745],[-110.43642,33.38452],[-110.44299,33.37738],[-110.44309,33.36787],[-110.45168,33.36327],[-110.4451,33.35054],[-110.44804,33.34633],[-110.44834,33.34228],[-110.44653,33.32347],[-110.4504,33.31771],[-110.44805,33.3018],[-110.44967,33.29778],[-110.45745,33.29498],[-110.45702,33.29143],[-110.45494,33.29116],[-110.45361,33.28619],[-110.45498,33.28233],[-110.45176,33.2798],[-110.44884,33.27194],[-110.44902,33.26656],[-110.4442,33.26251],[-110.44463,33.25752],[-110.43893,33.25306],[-110.42491,33.23188],[-110.42011,33.22092],[-110.40821,33.20421],[-110.40583,33.19724],[-110.40725,33.19349],[-110.41389,33.19178],[-110.42799,33.19162],[-110.43442,33.18858],[-110.4447,33.18936],[-110.44903,33.19453]]]}}]}